provider_id,employee_id,provider_name,debt,phone,email,city,country
Pr6990,1252,Fernandez-Brown,38211,588-219-59,timothyortiz@example.net,Patrickport,Honduras
Pr6991,4105,Davis and Sons,40445,384-293-83,heathersimpson@example.org,West Janetown,Bouvet Island (Bouvetoya)
Pr6992,3589,Malone- Evans and House,48818,464-846-85,samanthaingram@example.com,Millerburgh,El Salvador
Pr6993,3254,Smith Inc,43287,477-499-31,pluna@example.net,Armstrongbury,Swaziland
Pr6994,3125,Adams-Nguyen,36951,763-372-95,obishop@example.org,Hobbsfurt,Morocco
Pr6995,4301,Mckinney Inc,23045,210-296-13,ashley97@example.com,Luceroport,Egypt
Pr6996,3424,Clay LLC,26344,758-895-34,mjohnson@example.net,West Michael,Iraq
Pr6997,1712,Park- Swanson and Jones,47826,956-514-93,nelsonhannah@example.org,South Cathyhaven,Bangladesh
Pr6998,3291,Lawrence- Baker and Sutton,35466,822-632-48,nicholscharles@example.org,East Matthewhaven,Reunion
Pr6999,2909,Beck- Jones and Lopez,31506,578-026-28,sanchezvictor@example.com,New Keithburgh,Algeria
Pr7000,1265,Hanson Ltd,30632,101-801-58,cookmichael@example.com,Port Patriciashire,Kyrgyz Republic
Pr7001,3332,Williamson-Lowe,40583,216-239-43,bedwards@example.org,Collinsview,Dominica
Pr7002,4363,Bullock LLC,42029,589-779-13,hansonanthony@example.com,Matthewside,Netherlands Antilles
Pr7003,2411,Ford-Adams,16630,495-149-99,casesandy@example.net,Snyderburgh,Mongolia
Pr7004,3927,Patel-Koch,36335,670-719-71,amandawillis@example.net,Lake Caitlinmouth,Gabon
Pr7005,2975,Miller-Boone,26183,227-299-79,shawncampbell@example.net,Millsside,Holy See (Vatican City State)
Pr7006,4051,Moore-Evans,34744,668-240-95,hernandezsean@example.net,Jacquelineport,Macao
Pr7007,729,Calhoun-Moore,40394,827-144-50,williamwebb@example.com,South Elizabethfurt,Poland
Pr7008,2755,Torres- Washington and Graves,47449,630-610-70,benjaminowens@example.org,Webbstad,Malaysia
Pr7009,1892,Glover- Holloway and Page,22966,457-429-10,kenneth17@example.org,Ramirezstad,Czech Republic
Pr7010,1767,Little- Edwards and Baldwin,49943,395-255-17,robinsonjohn@example.org,Lake Ashley,Tokelau
Pr7011,3711,Williams- Jones and Porter,38084,219-615-23,joneskatherine@example.com,South Joseview,Qatar
Pr7012,1315,Horn Ltd,18130,809-471-43,hvelasquez@example.net,Clarkefort,North Macedonia
Pr7013,1676,Walters- Schultz and Ponce,27690,186-534-82,sara72@example.net,Jennifershire,Saint Helena
Pr7014,716,Crawford LLC,39584,122-996-46,jennifer34@example.net,Port Barryland,Nigeria
Pr7015,1072,Thompson-Rogers,21104,332-557-77,amanda35@example.net,Calhounshire,Comoros
Pr7016,4112,Bell-Brown,28263,169-974-59,dboyer@example.org,Garciaport,Liberia
Pr7017,1839,Henry Inc,25133,349-646-60,smithpaul@example.org,Brownshire,Cape Verde
Pr7018,877,Stewart- Gilbert and Rodriguez,34685,460-749-43,john12@example.net,Evansland,Georgia
Pr7019,2566,Erickson-Martin,41958,204-595-90,kgutierrez@example.org,Baileyhaven,Suriname
Pr7020,2842,Hill PLC,32919,504-591-19,jose43@example.net,Port Shannon,Afghanistan
Pr7021,2670,Mcgee- Robbins and Dunn,38489,172-109-26,zperry@example.net,Kennethport,Portugal
Pr7022,918,Castro-Sanders,49584,313-623-43,smithryan@example.org,Staceyport,Sao Tome and Principe
Pr7023,4587,Higgins- Kelley and Lam,30417,772-499-36,mark22@example.org,East Amberville,Guyana
Pr7024,3655,Sanders Inc,30754,427-668-39,tramirez@example.com,Christophertown,Iran
Pr7025,2784,Bryant- Bowman and Perez,35453,927-204-85,paulaharmon@example.com,West Shellyside,Italy
Pr7026,2086,Castro- Crane and Evans,22607,193-320-79,hendrixjohn@example.org,Tracyport,Tanzania
Pr7027,2219,Murray-Lopez,47715,517-380-45,manningjoseph@example.org,South Sara,Nepal
Pr7028,2442,Miller Ltd,19758,619-334-46,laura80@example.org,Grimesland,Greenland
Pr7029,4509,Small- Yu and Torres,46330,912-258-50,seansmith@example.com,North Jonathan,Turks and Caicos Islands
Pr7030,1938,Rios Group,27402,795-098-21,michael45@example.net,North Arielfurt,Wallis and Futuna
Pr7031,546,Walker-Johnson,23914,212-422-42,christopherprice@example.com,Georgeside,French Polynesia
Pr7032,4448,Lin-Drake,42150,483-155-31,woodardtracy@example.org,Port Nicoleburgh,Eritrea
Pr7033,2825,Petty-Rodriguez,17570,438-862-63,kaylacarpenter@example.net,Scottville,Faroe Islands
Pr7034,2019,Chambers Ltd,47121,413-546-59,amy92@example.net,Johnview,Ghana
Pr7035,3071,Rogers LLC,19257,572-453-74,sbarry@example.net,Whiteport,South Georgia and the South Sandwich Islands
Pr7036,3014,Fisher- Young and Dixon,38171,665-105-02,vincent36@example.org,West Jamesmouth,Lithuania
Pr7037,2314,Mendoza- Becker and Thomas,32325,866-557-45,dennisnathan@example.net,Lake Gregorystad,Pitcairn Islands
Pr7038,2629,Curtis-Moody,24305,966-304-33,erin55@example.net,Mccoyton,Vanuatu
Pr7039,1606,Robertson Inc,16274,919-861-18,velezvictor@example.org,North Steven,Albania
Pr7040,2189,Scott-Munoz,47682,652-582-83,kaisernathan@example.com,New Tracy,Paraguay
Pr7041,2793,Garcia-Mckinney,21898,682-082-32,amandamorgan@example.net,Bennettbury,New Caledonia
Pr7042,2164,Garcia- Wilcox and Thomas,40209,173-924-35,mitchellmichael@example.net,South Brianberg,United States Minor Outlying Islands
Pr7043,2058,Soto-Parks,40583,796-731-20,ramirezdawn@example.net,Mcguirefurt,Liberia
Pr7044,1511,Garcia- Wright and Harris,40309,847-381-33,anadunn@example.net,Boydmouth,Hong Kong
Pr7045,948,Ramsey-Gross,41174,630-283-15,mcclurepamela@example.org,Port Carlabury,Wallis and Futuna
Pr7046,1035,Peterson- Martin and Mckee,44972,994-550-21,dnorris@example.org,Carrietown,Finland
Pr7047,3831,Pope-Navarro,44219,682-291-74,john08@example.net,West Michael,Czech Republic
Pr7048,1288,Rodriguez Ltd,49348,852-037-94,tina36@example.org,South James,Andorra
Pr7049,1961,Gray- Moyer and Payne,48127,844-196-86,gwendolyn24@example.net,Port Timothyhaven,Saint Martin
Pr7050,683,Simon- Thomas and Ferrell,29013,293-952-70,naguirre@example.com,Austinmouth,Cambodia
Pr7051,2815,Carter-Murphy,16137,157-586-76,anthonystokes@example.org,Markfort,United States Virgin Islands
Pr7052,3502,Harris Ltd,49621,674-996-75,douglascampbell@example.net,Sheppardchester,United Kingdom
Pr7053,3528,Nguyen and Sons,49034,454-271-71,rbutler@example.com,Sherrystad,Korea
Pr7054,4633,Brown-Carpenter,40269,102-028-36,danielguzman@example.net,Port Michaelborough,Bolivia
Pr7055,2561,Johnson PLC,33274,407-022-05,brooke81@example.org,Seanstad,Paraguay
Pr7056,3445,Davis Inc,36501,520-289-35,john16@example.net,New Joseph,Kyrgyz Republic
Pr7057,3079,Parker-Mullins,30813,707-256-12,mevans@example.net,North Ginamouth,Panama
Pr7058,2584,White Group,41710,419-280-40,joyce33@example.org,Perryland,Philippines
Pr7059,1232,Gonzalez-Burton,23387,893-564-91,patrickdavid@example.net,Christophertown,Afghanistan
Pr7060,4331,Conrad- Johnson and Irwin,21405,437-513-78,nkennedy@example.com,Lake Jenniferview,Saint Pierre and Miquelon
Pr7061,3467,Ruiz-Dillon,28234,479-573-24,stoutjoseph@example.org,Danielleburgh,Saint Vincent and the Grenadines
Pr7062,2638,Eaton PLC,42648,170-400-19,davidmorrow@example.com,Nelsonside,Christmas Island
Pr7063,929,Rodgers Group,25672,924-583-64,reneephillips@example.com,New Matthewton,Monaco
Pr7064,1051,Martinez-Miranda,43402,314-507-83,melissaspencer@example.net,East Margaret,Egypt
Pr7065,1832,Foster-Davis,42086,127-592-16,glovertroy@example.net,Greenburgh,Vanuatu
Pr7066,3886,Smith- Lawrence and Davis,41645,793-725-19,victoringram@example.net,Barkerstad,North Macedonia
Pr7067,1431,Waters-Moyer,28642,480-582-14,elizabeth75@example.net,New Leslie,Jordan
Pr7068,1609,Schmidt Inc,43339,239-612-75,hwood@example.org,Baileymouth,Guadeloupe
Pr7069,2754,Smith Group,44619,629-182-82,sarahwood@example.net,East Robertville,Poland
Pr7070,901,Castro- Martin and Olsen,17052,758-077-96,andrea87@example.com,Jacquelineborough,Cape Verde
Pr7071,1543,Kane Group,23138,640-215-00,isimon@example.org,Patelmouth,Cayman Islands
Pr7072,2905,Washington Inc,24317,869-957-10,melinda45@example.com,Cindyton,Saint Kitts and Nevis
Pr7073,4396,Powell- Hart and Herrera,18168,203-710-72,caitlinsmith@example.com,Stantonburgh,Kiribati
Pr7074,1636,Whitney- Erickson and Kemp,32009,975-782-09,blairjoseph@example.org,Amberfurt,Kenya
Pr7075,569,Lopez-Spencer,39780,939-531-42,qball@example.org,Smithton,Niue
Pr7076,1007,Flores- Garcia and Cooper,21843,923-277-89,rsims@example.net,Melissaside,British Indian Ocean Territory (Chagos Archipelago)
Pr7077,2522,Mejia- Thomas and Morgan,28384,836-424-94,rebecca79@example.com,Port Stephanieborough,Cape Verde
Pr7078,2847,Smith- Conrad and Holder,18071,554-413-28,rnorris@example.com,Port Traci,Tanzania
Pr7079,1405,Knight-Smith,34000,895-634-69,jason82@example.net,Sarahbury,Germany
Pr7080,2587,Lee Group,27900,179-393-09,knichols@example.org,Angelashire,Fiji
Pr7081,4050,Garcia Inc,31911,453-368-88,jessica82@example.com,Floresmouth,Philippines
Pr7082,4030,Stewart-Bennett,25267,191-151-95,alicia89@example.org,West Williamview,Seychelles
Pr7083,2696,Pratt-Reynolds,16995,901-336-15,stephanie36@example.org,North Jonathanport,Nepal
Pr7084,763,Mills and Sons,30551,222-697-92,sanchezjeffery@example.org,Lynchfort,Mali
Pr7085,4529,Miles-Jones,49249,677-060-60,rosejuan@example.net,West Robin,Puerto Rico
Pr7086,2641,Johnson- Harris and Gates,29340,907-822-05,gabriella23@example.com,Lauraton,Congo
Pr7087,3056,Carter PLC,37066,316-475-27,valeriealexander@example.net,New Allisonmouth,Tajikistan
Pr7088,1682,Buchanan-Walker,20348,415-361-31,ashleywest@example.com,Port Valeriebury,Congo
Pr7089,3540,Brown- Zimmerman and Stevenson,19952,610-869-69,millervictor@example.org,South Robert,Reunion
Pr7090,3569,Coffey- Wright and Norman,20417,319-238-01,yvette49@example.net,Kennethfort,Lao People's Democratic Republic
Pr7091,2847,Payne- Myers and Everett,22707,287-366-98,xgray@example.net,West Carlos,Namibia
Pr7092,3506,Davidson LLC,18257,275-381-21,raymondcampbell@example.org,Lopezbury,Singapore
Pr7093,3920,Jenkins- Sloan and Myers,29370,727-648-46,davisheather@example.org,Troytown,Falkland Islands (Malvinas)
Pr7094,1647,Casey Ltd,42152,814-814-41,joeevans@example.net,New Vanessa,Iraq
Pr7095,3503,Carpenter- Stevenson and Harris,31525,132-350-87,derekparker@example.org,North John,Christmas Island
Pr7096,3802,Sellers Group,43433,142-060-68,johnrosario@example.net,Bradleyland,Martinique
Pr7097,3750,Hill-Graham,23195,383-846-28,lyonscody@example.org,Woodsshire,Liechtenstein
Pr7098,3401,Jackson-Flores,32237,166-541-88,howardalicia@example.net,Chapmanmouth,Antarctica (the territory South of 60 deg S)
Pr7099,4006,Banks Inc,42555,158-009-40,rtaylor@example.org,West Richardmouth,Comoros
Pr7100,2765,Rivas and Sons,40159,414-063-40,david85@example.net,East Jill,Lesotho
Pr7101,2821,White-Collins,30879,788-515-86,lwang@example.org,West Danny,Gibraltar
Pr7102,1420,Ross LLC,41097,760-485-42,zperez@example.net,East Tracy,Israel
Pr7103,1585,Perez-Carr,38922,580-421-93,matthewslisa@example.org,Lake Hector,Thailand
Pr7104,1451,Carter-Reed,37359,190-862-18,thomas87@example.com,Lucasside,India
Pr7105,1189,Fleming-Sweeney,19494,320-317-85,bcook@example.org,New Nancy,Lithuania
Pr7106,2344,Myers-Coleman,23802,144-778-75,simmonsronald@example.org,New Williamtown,Vanuatu
Pr7107,1487,Matthews-Robertson,47118,615-553-53,kendramclaughlin@example.net,New Jacobbury,Uzbekistan
Pr7108,4746,Berry- Phillips and Mcdaniel,35073,559-480-39,richardarcher@example.net,Garciafort,Monaco
Pr7109,1102,Silva Group,43428,322-939-78,lucas93@example.net,East Tracistad,Mongolia
Pr7110,3912,Morris- Bryant and White,28242,676-797-33,fyoung@example.net,South Charles,Kiribati
Pr7111,3098,Burns-Payne,36484,123-626-04,teresa57@example.com,Rosebury,Jamaica
Pr7112,683,Brooks- Miller and Lawrence,48796,485-230-75,tlopez@example.net,North Alexanderbury,Senegal
Pr7113,3654,Baker- Allen and Nichols,30579,643-111-44,rickymendez@example.com,Garychester,Western Sahara
Pr7114,3935,Giles Group,42943,787-203-34,barrettbrent@example.net,Port Amy,Rwanda
Pr7115,3860,Rocha-Castillo,36686,922-746-29,angelica88@example.com,New Stevemouth,Finland
Pr7116,1159,Powell- Johnston and Wright,45029,394-937-86,susangarcia@example.org,Port Jason,Kuwait
Pr7117,2397,Jefferson- Day and Hess,28434,864-377-41,dwilliams@example.com,Lake Ronald,Equatorial Guinea
Pr7118,611,Tran Inc,44584,301-533-37,tamara18@example.org,Mcguireburgh,Portugal
Pr7119,928,Valentine- Miller and Ball,24635,960-550-40,sheenapotter@example.com,West Samuelbury,Dominican Republic
Pr7120,804,Garrison LLC,22854,886-493-22,smithlaura@example.org,Ariashaven,Israel
Pr7121,1440,Brown- Hayes and Scott,40946,440-712-65,fespinoza@example.org,New Sherry,Togo
Pr7122,2961,Johnson-Wiley,48342,191-704-19,peter50@example.net,Grahamfurt,Canada
Pr7123,3097,Bailey-Nguyen,37519,653-663-58,ufrey@example.net,Johnnystad,Honduras
Pr7124,2173,Shaffer Ltd,41172,181-970-20,ujacobs@example.com,Wrightport,Saint Kitts and Nevis
Pr7125,4653,Nicholson and Sons,35156,813-105-41,schambers@example.org,North Becky,Bahrain
Pr7126,4489,Kirk-Johnson,45916,942-969-74,hunterkelly@example.net,Port Christina,Guyana
Pr7127,2276,Gardner- Bennett and Craig,41828,745-291-36,fieldsbrian@example.net,East John,Denmark
Pr7128,3048,Walters LLC,16333,861-446-43,heather32@example.com,Danielside,Lao People's Democratic Republic
Pr7129,1780,Underwood- Moses and Garrett,36125,969-168-59,taraknight@example.org,South Heidibury,Falkland Islands (Malvinas)
Pr7130,1963,Morris and Sons,20718,369-535-72,salazarnicholas@example.org,Edwardshaven,Lithuania
Pr7131,3297,Brown-Garcia,42992,265-396-63,vperry@example.net,Lake Juliestad,Latvia
Pr7132,2048,Lopez LLC,16050,838-036-98,michelle98@example.net,North Carl,Tanzania
Pr7133,1854,Cooper-Vasquez,36229,711-326-35,lberger@example.net,Ramosberg,Iraq
Pr7134,3731,Johnson Inc,47175,934-508-19,cynthiarivers@example.com,Stewartport,Togo
Pr7135,563,Richards- Medina and Wallace,39768,548-764-02,pamela77@example.com,New Brandon,Mongolia
Pr7136,1863,Garcia-Estrada,15832,951-794-45,heatherbrooks@example.org,North Scott,Lithuania
Pr7137,2796,Lane- Anderson and Sims,35725,444-747-15,tammyaguilar@example.net,Lake Amanda,Vietnam
Pr7138,2749,Herring PLC,29704,787-820-01,brownpamela@example.net,Billyborough,Christmas Island
Pr7139,751,Robinson- James and Ayala,38216,599-217-62,ngillespie@example.net,Bennettside,Northern Mariana Islands
Pr7140,2465,Cruz-Pope,38852,727-960-27,yvette80@example.org,Johnnyborough,Guyana
Pr7141,3429,Ortiz-Crawford,46469,185-252-57,tracy06@example.net,New Karen,Micronesia
Pr7142,524,Golden- Owens and Harrington,30381,393-314-36,dennisjason@example.com,North Jenna,Malawi
Pr7143,777,Ruiz-King,28266,307-498-37,wilsondaniel@example.org,South Michaelport,Nepal
Pr7144,3186,Green Ltd,40419,367-346-68,brooke32@example.com,East Amandaland,Saint Barthelemy
Pr7145,4726,Williamson- Glover and Hart,16008,999-208-71,kevinkim@example.com,Ashleyburgh,Guinea
Pr7146,4340,Parker-Wood,44479,775-992-05,davisbradley@example.net,South Baileymouth,United States Minor Outlying Islands
Pr7147,4125,Hart- Krueger and Weaver,34578,967-699-60,nicholas89@example.org,Campbellborough,Albania
Pr7148,3037,Castro-Munoz,43157,496-552-71,matthewcabrera@example.com,Danielleborough,Northern Mariana Islands
Pr7149,1975,Holmes-Trevino,15739,375-428-88,whiteadam@example.org,Smithfurt,Burkina Faso
Pr7150,2694,Roberts-Choi,46426,669-105-37,johnsoto@example.com,Port Timothy,Cote d'Ivoire
Pr7151,3554,Garcia- Hunt and Werner,19755,686-394-91,floresdavid@example.com,Herreratown,Montserrat
Pr7152,4130,Newman- Miller and Lambert,18899,706-144-00,emilyrios@example.com,Bullockshire,Croatia
Pr7153,1868,Holland-Stone,21167,186-432-75,nsmith@example.org,Port Michaelburgh,Fiji
Pr7154,1681,Cruz-Ward,42954,596-888-87,tcox@example.org,New Matthewberg,Faroe Islands
Pr7155,1705,Case-Melendez,41431,626-315-76,toniallen@example.com,East Alexanderview,Benin
Pr7156,2809,Harris PLC,32483,584-865-14,pagemargaret@example.com,South Morganside,Vietnam
Pr7157,4013,Lawrence and Sons,40107,610-175-61,karenking@example.net,Alexanderfurt,Greenland
Pr7158,4379,Morales Inc,45983,528-136-91,wmacias@example.org,New Victor,Bangladesh
Pr7159,1453,Morgan- Davis and Sanford,16038,130-833-66,morrisondaniel@example.org,West Angela,Guam
Pr7160,542,Jimenez- Burns and Hale,20224,525-988-87,wthornton@example.net,West Derekmouth,Nigeria
Pr7161,4298,Collins- Murphy and Eaton,32812,800-177-16,davidharrell@example.com,New Kennethmouth,Niger
Pr7162,3281,Warren-Delgado,23868,120-427-35,elizabeth85@example.com,Richardmouth,Norfolk Island
Pr7163,1531,Jones- Baxter and Harrison,17589,871-264-89,michaelwood@example.com,New Nicholas,Guatemala
Pr7164,1681,Sanchez-Brown,36992,120-693-91,davidacosta@example.com,South Kendrafurt,Libyan Arab Jamahiriya
Pr7165,3347,Baker-Grant,43558,675-370-68,jenniferhouston@example.com,Hughesland,Burkina Faso
Pr7166,2899,Dalton LLC,33540,123-694-49,jason57@example.org,East Isaacshire,Kazakhstan
Pr7167,700,Ruiz PLC,31389,153-415-93,camerongabrielle@example.org,Cruzport,French Guiana
Pr7168,2693,Hill-Peck,34366,154-289-54,ernest11@example.com,North Katrinaborough,India
Pr7169,3156,Hernandez-Dawson,41049,434-402-34,kayla28@example.net,Stewartshire,Netherlands Antilles
Pr7170,4309,Brown Ltd,21417,840-118-64,lucerosamantha@example.org,Port Dominiqueland,Mongolia
Pr7171,1400,Obrien Ltd,17254,321-212-31,kristina05@example.org,West Vanessachester,United Kingdom
Pr7172,1007,Graham-Mack,15638,654-343-66,thomaspope@example.net,Jesushaven,Rwanda
Pr7173,838,Stewart-Caldwell,26870,425-568-51,johnsonashley@example.com,Willisland,Sri Lanka
Pr7174,2374,Mathis- James and Walker,30642,980-939-20,tiffany79@example.org,West Jessicafort,Argentina
Pr7175,4647,Lee- Long and Kelley,49888,103-312-96,stephenburton@example.org,Perezton,Pakistan
Pr7176,4639,Villegas-Freeman,36727,717-659-98,dmorgan@example.net,North Michelle,Finland
Pr7177,4490,Smith LLC,27480,257-439-72,rodrigueznatalie@example.net,Nicolefurt,El Salvador
Pr7178,1408,Ellis-Miller,42685,395-969-92,webstercalvin@example.org,South Jill,Netherlands
Pr7179,3057,Gomez PLC,38059,914-505-42,qcochran@example.net,Richardberg,United States Virgin Islands
Pr7180,3587,Torres and Sons,32412,370-305-94,coledana@example.org,Kendraport,Turkmenistan
Pr7181,2694,Molina-Smith,46147,432-247-47,meyerelizabeth@example.com,New Davidfort,Gibraltar
Pr7182,4103,Molina Inc,35224,865-627-93,qbauer@example.net,North Natalietown,Paraguay
Pr7183,2802,Schwartz PLC,43362,143-879-45,hburton@example.net,East Patriciaton,Northern Mariana Islands
Pr7184,1201,Shelton- Wilson and Swanson,35243,462-840-14,lisa39@example.com,Patriciashire,Somalia
Pr7185,1182,Mcknight Ltd,40311,271-274-01,gromero@example.com,Michaelchester,Falkland Islands (Malvinas)
Pr7186,922,Ramirez-Burke,27664,534-852-46,michael19@example.net,East Maureen,Mauritania
Pr7187,3703,White Group,49789,781-835-45,matthewpitts@example.net,Moranstad,Guinea
Pr7188,1621,Gomez-Mullins,33951,101-729-11,sgriffin@example.org,West Christopher,Andorra
Pr7189,1450,Adams Inc,38827,853-006-86,williamsstephanie@example.com,New Jeffreytown,Cape Verde
Pr7190,3434,Ballard-Gonzalez,34189,920-559-06,xwarner@example.net,Cathyton,Estonia
Pr7191,802,Davis-Murray,49586,785-124-18,timothypearson@example.com,New Daniellebury,Libyan Arab Jamahiriya
Pr7192,1385,Mayo- Jones and Armstrong,27136,255-420-31,russellwise@example.com,New Natalieborough,Philippines
Pr7193,3657,Johnson Ltd,23121,686-486-05,simonsamantha@example.com,Lauriehaven,Timor-Leste
Pr7194,3372,Murillo- Dyer and Fletcher,37200,992-716-64,jerry05@example.net,East Alexanderside,Reunion
Pr7195,1229,Chavez LLC,19425,207-140-92,folsen@example.org,Pamelafurt,Senegal
Pr7196,4210,Johns- Singleton and Sanchez,24900,118-315-97,mendozajesus@example.com,West Kevin,Jordan
Pr7197,3306,Smith-Williams,31778,178-448-16,arivera@example.com,Christyland,Turkmenistan
Pr7198,4366,Ortega- Rowland and Landry,15573,113-267-55,sarahanderson@example.org,Lake Madison,Mayotte
Pr7199,2507,Munoz- Harris and Snyder,41371,340-450-17,rachel72@example.com,New Ashleyview,United Kingdom
Pr7200,889,Cox-Jordan,31792,292-760-59,jeffersonkatrina@example.com,Lutzmouth,Uzbekistan
Pr7201,4328,Morse Group,39223,555-016-22,qgoodwin@example.com,New Jonathan,Montserrat
Pr7202,2733,Holder-Ballard,23016,542-393-73,fosterdennis@example.com,North Mary,Eritrea
Pr7203,4639,Villegas- Lane and White,28323,113-374-53,vaughanjoseph@example.org,Mcgrathville,South Africa
Pr7204,2718,Morgan-Johnston,29389,469-087-68,colliervalerie@example.com,East Jason,Bahrain
Pr7205,2485,Jones-Adams,43959,345-305-10,bwilliams@example.net,Huangton,Monaco
Pr7206,3759,Knight- Phillips and Zavala,42451,250-841-35,jake46@example.com,Grantchester,Estonia
Pr7207,2839,Baker PLC,20217,862-613-07,owilliamson@example.net,Adamsberg,Timor-Leste
Pr7208,1921,Page-Reynolds,18579,743-652-06,james67@example.org,Lake Matthewton,Kenya
Pr7209,1507,Byrd-Bailey,19576,144-621-29,millereric@example.org,Lake Miguelchester,Iraq
Pr7210,2760,Benton LLC,49913,606-042-92,greenjeffrey@example.org,Chloestad,Congo
Pr7211,1033,Moore Group,26109,403-607-01,jermaine54@example.com,Camposhaven,Gabon
Pr7212,2370,Travis-Miller,40072,364-102-29,qcurtis@example.com,Davisland,Greenland
Pr7213,2358,Johnson- Lewis and King,38487,745-979-32,kramerrita@example.net,Lake James,Swaziland
Pr7214,2377,Howard- Nicholson and Smith,43575,502-649-56,andrewpratt@example.org,Jeffreyland,Saint Helena
Pr7215,4236,Parker Group,29136,518-388-48,james29@example.com,Georgeborough,Sudan
Pr7216,2381,Brown-Vargas,19627,731-948-30,garciayvette@example.com,Howardville,Pitcairn Islands
Pr7217,504,Odom- Harper and Elliott,42004,574-484-02,alex75@example.net,Carterhaven,Martinique
Pr7218,1704,Curry Ltd,49948,355-972-08,jessica44@example.com,Lake Kenneth,Panama
Pr7219,4270,Guerrero- Marsh and Scott,42354,730-394-38,michelle32@example.com,East Frederick,Norfolk Island
Pr7220,869,Schmidt Group,30622,858-167-55,jessicasmith@example.net,Williamhaven,Northern Mariana Islands
Pr7221,3980,Rojas- Strickland and Parks,43175,200-639-06,vlawson@example.com,North Michele,Northern Mariana Islands
Pr7222,2406,Jackson- Medina and Foster,15660,221-507-52,stevenhanson@example.net,Port Juliafurt,Gibraltar
Pr7223,538,Thomas- Dougherty and Rodriguez,22704,463-041-79,qmason@example.org,Andrewmouth,Guinea
Pr7224,1116,Kirby-Jones,43142,653-204-03,patriciakelly@example.org,Merrittburgh,Guadeloupe
Pr7225,3985,Richmond- Williams and Mcintyre,24861,813-476-81,shelby19@example.com,Weissstad,Kazakhstan
Pr7226,1404,Valencia- Rodriguez and Wilkins,21946,660-225-53,johnlane@example.org,Matthewshaven,Samoa
Pr7227,3037,Mora- Thomas and Bass,46623,745-052-09,william71@example.org,Clayland,Nigeria
Pr7228,4226,Aguirre- Raymond and Sanchez,33650,710-795-49,brett72@example.org,Alisonshire,United States Virgin Islands
Pr7229,2462,Thornton Ltd,18125,968-716-51,elizabeththompson@example.com,New Dawntown,Antarctica (the territory South of 60 deg S)
Pr7230,3907,Chen- Johnson and King,43516,724-645-20,deborah15@example.net,East Markside,Congo
Pr7231,1456,Webster PLC,26846,458-582-97,xjackson@example.org,Davenportville,Samoa
Pr7232,3412,Reyes PLC,39204,605-145-60,teresaduffy@example.org,Melissaland,Egypt
Pr7233,2119,Durham- Espinoza and Patel,23657,495-581-33,jrice@example.com,Staceychester,Timor-Leste
Pr7234,3049,Martin- Guzman and Rivera,40589,756-087-53,garciaandrea@example.org,South Jason,San Marino
Pr7235,3912,Campbell-Brown,40741,209-588-92,dbrown@example.com,Lake Kevintown,Togo
Pr7236,4452,Wood-Carrillo,24118,706-012-65,brianlarson@example.org,Lake Andrewberg,French Guiana
Pr7237,4228,Swanson Inc,17468,640-494-05,rsmith@example.net,Paynechester,Timor-Leste
Pr7238,4261,Fowler-Cook,30098,864-254-95,ogonzalez@example.net,Kochfort,Malawi
Pr7239,3997,Frye-Wolf,35711,187-214-82,mauricelee@example.org,Lake Thomas,Italy
Pr7240,3102,Dawson LLC,42200,790-838-04,cherylmartin@example.org,West Carolhaven,United Arab Emirates
Pr7241,4460,Wells- Whitehead and Cooper,24333,682-848-71,evansjames@example.com,Alishafort,Dominica
Pr7242,968,Schwartz- Richardson and Williams,29124,729-322-00,michaelbrown@example.com,Reesestad,Slovenia
Pr7243,4489,Green- Robinson and Ingram,20467,610-231-88,wmccoy@example.com,West Crystaltown,Brunei Darussalam
Pr7244,3544,Mays- Williams and Johnson,32683,313-363-54,angelicathomas@example.org,Moodyberg,United Arab Emirates
Pr7245,2314,Stanley-Houston,37861,208-763-94,tammyjohnson@example.org,Hayesfort,Montenegro
Pr7246,1525,Washington and Sons,15986,136-819-67,ggood@example.com,East Robert,Reunion
Pr7247,3179,Harris- Prince and Arnold,28735,315-740-94,osantos@example.net,Martinmouth,Syrian Arab Republic
Pr7248,4163,House-Aguilar,48163,329-508-61,william03@example.org,Parkerchester,Turks and Caicos Islands
Pr7249,2688,Wall- Banks and Harper,26350,899-871-16,longjames@example.net,South Catherineview,Niue
Pr7250,1034,Morgan Inc,48043,617-805-53,petersrichard@example.net,Fordstad,Ethiopia
Pr7251,3375,Cohen Group,32718,999-448-87,uwilson@example.net,Victoriashire,Ukraine
Pr7252,4563,Schmidt-Taylor,33234,253-501-14,jamesjones@example.net,West Kendraland,Cote d'Ivoire
Pr7253,1269,Ward- Nelson and Cooper,46440,833-448-83,kendrarodriguez@example.net,North Michael,Peru
Pr7254,569,Smith- Whitney and Fitzgerald,45389,895-340-91,sstevens@example.org,Christopherbury,Guadeloupe
Pr7255,1719,Kim Inc,31233,821-080-62,bbecker@example.org,Ramosshire,Comoros
Pr7256,3804,Wright- Salas and Turner,30303,167-105-82,amanda17@example.org,Jenniferbury,Mali
Pr7257,2999,White-Davis,44549,980-923-80,garcialance@example.com,Suttonchester,New Zealand
Pr7258,1120,Taylor-Anderson,45038,528-129-47,brandonhernandez@example.net,Gibsonstad,Cape Verde
Pr7259,4509,Oconnor- Robinson and Bennett,47853,353-038-75,brendaoliver@example.net,West Shawn,Lesotho
Pr7260,1590,Santos Ltd,38353,912-557-03,sara08@example.net,Pierceburgh,Serbia
Pr7261,1851,Herrera PLC,31992,138-436-32,davidsondana@example.com,North Lisa,Christmas Island
Pr7262,4436,Briggs Group,45444,354-661-13,gflores@example.org,Thomastown,Sri Lanka
Pr7263,1598,Hopkins-Carpenter,35510,147-531-14,charlesregina@example.net,Douglasview,Saint Pierre and Miquelon
Pr7264,507,Mckenzie- Walter and Brown,32136,500-353-21,jasminnguyen@example.net,Rileyside,Portugal
Pr7265,2118,Dillon- Davis and Johnson,47275,697-060-98,vclark@example.com,Lake Ronaldmouth,Saint Pierre and Miquelon
Pr7266,1030,Blackwell- Mcdowell and Quinn,35094,173-734-94,roy79@example.com,South Jacqueline,Guyana
Pr7267,2028,Anderson- Neal and Villa,42622,238-604-31,jklein@example.org,Richardstad,Algeria
Pr7268,3521,Patterson-Gilmore,47225,838-651-50,jspencer@example.com,East Karen,United States Minor Outlying Islands
Pr7269,4150,Garcia-Mclaughlin,45723,938-708-98,woodskaren@example.net,Pattersontown,Cocos (Keeling) Islands
Pr7270,535,Ramirez- Robinson and Hughes,47922,190-901-47,davidsontodd@example.com,Port Christopher,Jamaica
Pr7271,4292,Jones PLC,45499,518-357-44,jacqueline37@example.net,Dannychester,Chile
Pr7272,1839,Anderson PLC,17578,532-876-99,coxgregory@example.com,South Tracychester,Vietnam
Pr7273,683,Young-Reed,24172,115-068-85,rebecca74@example.com,Kevinfurt,Yemen
Pr7274,2438,Zimmerman-Palmer,43645,989-332-06,oabbott@example.com,New Michael,Montserrat
Pr7275,4545,Henry-Johnson,17605,811-647-85,ginasanchez@example.com,Leblancberg,Italy
Pr7276,3246,Taylor- Hart and Skinner,48690,743-643-45,patrick63@example.net,South Andrew,Tunisia
Pr7277,3759,Thompson PLC,40895,690-589-69,courtneyperez@example.com,Rhondafurt,Tajikistan
Pr7278,1612,Hunt- Oliver and Nguyen,46536,966-024-77,aaron88@example.net,Chaseton,Andorra
Pr7279,1954,Bryant-Williams,25534,798-571-95,nadams@example.org,West Leslieberg,Pitcairn Islands
Pr7280,1221,Simpson- Lawson and Duncan,40237,768-146-46,garrisonhenry@example.com,Port Derekstad,Swaziland
Pr7281,2003,Clark PLC,45175,274-112-65,jay28@example.net,Port Joyceland,Panama
Pr7282,1917,Sullivan-Armstrong,40367,577-653-71,kyle38@example.org,East Rebekah,Burundi
Pr7283,1754,Love-Henderson,16669,127-210-17,qclarke@example.org,East Reginaldfurt,Poland
Pr7284,2667,Hutchinson- Curtis and Fernandez,48395,160-473-47,mercerchristopher@example.net,Martinhaven,Finland
Pr7285,4440,Bass- Harris and Warren,37953,476-772-74,gloverjustin@example.org,North Rhondabury,New Caledonia
Pr7286,1789,Cook Group,34977,941-802-50,dustin54@example.net,New Kathytown,Montserrat
Pr7287,3228,Hall-Sanchez,36941,131-179-46,sierra45@example.net,Justinport,Lebanon
Pr7288,4090,Garrett- Baker and Chandler,23930,919-936-17,ramirezmark@example.com,Shaneside,Bolivia
Pr7289,1825,Sanchez LLC,47186,837-564-67,jason93@example.net,Clarkchester,Netherlands Antilles
Pr7290,3152,Guerrero- Lara and Long,32955,129-062-32,pschroeder@example.com,East Courtneyport,Chad
Pr7291,3375,Wright- Harris and Key,29982,354-403-53,eddie18@example.net,East Chris,Serbia
Pr7292,4706,Stewart-Caldwell,31510,824-411-63,patriciadavis@example.org,Martinside,Maldives
Pr7293,2463,King- Beck and Robinson,40432,311-522-80,staceyburns@example.net,West Lynnbury,French Southern Territories
Pr7294,3866,Ward-Weber,16699,912-878-78,timothyjones@example.com,Port Julia,Nicaragua
Pr7295,1023,Espinoza- Frost and Norman,27549,322-648-53,kwelch@example.org,Lopeztown,Marshall Islands
Pr7296,4593,Nixon- Perez and Taylor,47656,628-069-49,nsmith@example.org,Mosstown,Samoa
Pr7297,2085,Martin- David and Fischer,36092,933-224-16,michael91@example.net,Lake Hollymouth,Ecuador
Pr7298,4190,Garza LLC,49432,791-519-92,rhondafritz@example.com,Jonesberg,Jordan
Pr7299,2805,Morris-Brown,20813,272-983-25,michael66@example.net,East Andrewton,Kiribati
Pr7300,2732,Spencer- Bennett and Rodriguez,49080,511-518-25,kramererik@example.net,Lake Hayley,Congo
Pr7301,2493,Hanson and Sons,22727,769-069-49,craig13@example.org,Monicahaven,Egypt
Pr7302,1664,Morris and Sons,47193,733-167-57,kanderson@example.com,West Robert,Montserrat
Pr7303,1441,Mahoney-Lawson,31005,864-618-00,walter21@example.org,North Michaelbury,United Kingdom
Pr7304,1002,Sampson-Crane,23497,662-421-42,calvinjones@example.org,Crawfordstad,Cayman Islands
Pr7305,1231,Garza- Bates and Davis,21637,625-562-97,charles13@example.org,Darrellstad,Reunion
Pr7306,4357,Jones- Gregory and Grant,49306,570-059-00,vlara@example.org,North Feliciachester,Solomon Islands
Pr7307,4476,Todd PLC,33058,140-712-17,crystalphillips@example.net,Lake Sara,Kiribati
Pr7308,4509,Alexander- Bennett and Logan,34567,470-176-19,laura46@example.org,Lewisside,Seychelles
Pr7309,4183,Kline-Pham,24421,944-693-70,sarah90@example.net,Alejandramouth,Netherlands Antilles
Pr7310,1461,Martinez-Silva,15722,469-607-22,ronald83@example.net,West Michael,Philippines
Pr7311,3086,Arnold PLC,28369,599-298-71,nalvarado@example.com,East Stephenville,Austria
Pr7312,2450,Kennedy Inc,40328,423-095-96,christopherlong@example.com,Port Derek,Tonga
Pr7313,4479,Howard-Miller,46904,381-091-29,davidnielsen@example.com,North Susan,Nicaragua
Pr7314,3889,Stevens Group,29065,635-801-55,kimberlyjacobs@example.org,Harthaven,Eritrea
Pr7315,4318,Smith-Marquez,32925,888-147-86,emora@example.net,Deleonfurt,Antarctica (the territory South of 60 deg S)
Pr7316,530,Hill PLC,28216,383-750-81,walshpamela@example.com,New Kevin,Lithuania
Pr7317,2757,Stone PLC,48392,355-258-56,uhughes@example.net,Lake Jerome,Saint Barthelemy
Pr7318,3108,Miller-Hopkins,16363,882-919-96,christopherwade@example.net,Smithburgh,Ecuador
Pr7319,3474,West-Gonzales,35255,804-938-42,georgecynthia@example.com,West Melanieton,British Virgin Islands
Pr7320,2164,Bruce- Townsend and Scott,18540,516-841-35,charles98@example.com,Lake Christophermouth,Madagascar
Pr7321,505,Rose LLC,40134,929-104-19,randy11@example.net,Lake Emily,Oman
Pr7322,1275,Leon- English and Cook,49473,125-226-42,laurenjennings@example.net,North Kennethberg,Macao
Pr7323,3976,Grimes- Chen and Wilson,46606,943-404-00,andersonmichael@example.com,Elliottton,Macao
Pr7324,3083,Richards-Dougherty,46030,949-003-66,ahoward@example.net,South Samanthaside,Saint Pierre and Miquelon
Pr7325,642,Pollard-Douglas,27940,502-423-20,carolynburch@example.com,North Juliefort,Bouvet Island (Bouvetoya)
Pr7326,581,Gilbert- Fox and Jimenez,28098,491-791-22,kara05@example.com,Miguelburgh,Somalia
Pr7327,3117,Sanchez- Black and Bates,28077,700-308-20,lfrancis@example.net,East Jennifer,Panama
Pr7328,4377,Melton- Garcia and Haynes,49229,557-725-43,rblanchard@example.net,South Briannaton,Tunisia
Pr7329,858,Murillo Group,39988,686-118-65,jlove@example.com,Jonathantown,British Virgin Islands
Pr7330,889,Evans Group,41022,549-491-23,michaelgonzalez@example.net,Chungview,Niue
Pr7331,2748,Torres-Sanders,29080,473-417-61,paulmoreno@example.net,Williamsbury,Saint Pierre and Miquelon
Pr7332,4014,West- Stevens and Hines,21529,692-675-19,susandiaz@example.org,Christinemouth,Lao People's Democratic Republic
Pr7333,4575,Henry Group,27419,279-594-91,andrewmurphy@example.net,South Scott,Greenland
Pr7334,1969,Ramos-Calderon,33517,976-067-68,rflynn@example.org,Lake John,Aruba
Pr7335,3300,Brewer Inc,17495,612-436-69,lisaroach@example.com,West Jack,Seychelles
Pr7336,1316,Smith- Terry and Conway,31154,785-851-16,cameron23@example.com,Benjaminfurt,Finland
Pr7337,3147,Nguyen- Stevens and Barker,16159,966-688-88,gordonhaley@example.com,Patriciaborough,Haiti
Pr7338,1429,Leonard-Cummings,45026,151-973-93,johnsonkari@example.com,New Brandon,Japan
Pr7339,3007,Bishop LLC,15531,810-441-88,michaelweber@example.com,New Thomas,Cayman Islands
Pr7340,4188,Randall-Schneider,19649,925-954-56,jenniferphillips@example.com,Lake Ronald,Luxembourg
Pr7341,4705,Hayes- Roberts and Ibarra,32457,622-009-10,twright@example.org,Newmanshire,French Guiana
Pr7342,4660,Medina- Miller and Jones,34119,753-308-96,mlewis@example.com,Port Patrickmouth,Brazil
Pr7343,2724,Meyer-Morales,35175,221-752-67,michaelhahn@example.net,Buckleyfurt,Ireland
Pr7344,1241,Villa-Lambert,37599,922-659-95,jacquelinewilson@example.com,North Garybury,Algeria
Pr7345,2129,Garcia- Sanders and Levy,38302,183-259-92,caldwelltina@example.net,Port John,Cape Verde
Pr7346,1036,Garner-Foster,43347,942-047-55,michael70@example.com,Matthewberg,Mayotte
Pr7347,2991,Wagner- King and Parker,44597,500-798-06,jeffreywhite@example.com,Leeton,Norway
Pr7348,2046,Santiago-Torres,23358,452-877-12,meredith35@example.net,Port Yvonnestad,Austria
Pr7349,2834,Holmes Inc,35462,676-299-26,sterry@example.com,Port Soniaport,Brunei Darussalam
Pr7350,3424,Robinson- Cunningham and Bailey,40680,893-038-69,larryhansen@example.org,South Thomasborough,Croatia
Pr7351,699,Smith-Boone,29509,289-836-94,matthew92@example.com,Erinbury,Turkey
Pr7352,3645,Bishop- Lee and Santiago,24543,144-647-54,abarry@example.com,Michaelton,United States Minor Outlying Islands
Pr7353,4231,Ortiz- Hughes and Foster,30136,962-291-30,mdixon@example.org,Jamesshire,Netherlands
Pr7354,4627,Ford Inc,26148,620-408-60,charlesklein@example.org,Beckerville,Suriname
Pr7355,3456,Weiss- Bryant and Anderson,21557,730-819-53,psilva@example.net,Martinport,Sierra Leone
Pr7356,1999,Callahan-Thomas,20491,292-813-93,kristina66@example.com,Piercebury,Burundi
Pr7357,4629,Walton Inc,25524,244-761-45,wilsonmichael@example.net,Callahanfort,Belize
Pr7358,592,Pittman Inc,44889,842-725-96,brian87@example.net,New Madeline,British Indian Ocean Territory (Chagos Archipelago)
Pr7359,3575,Chan-Mills,25446,814-223-06,howardrebecca@example.org,Daniellehaven,Togo
Pr7360,3637,Evans-Lloyd,43194,859-670-16,kherrera@example.org,South Jeffrey,Afghanistan
Pr7361,1033,Webster-Williams,27644,389-442-54,amber46@example.com,Brownhaven,Lithuania
Pr7362,1991,Clark- Martinez and Wood,17323,123-290-96,lambertmichelle@example.com,South Mackenzieton,Ukraine
Pr7363,1840,Miller-Allen,37712,424-286-35,washingtonlarry@example.com,Wrightbury,Djibouti
Pr7364,1198,Haynes- Singh and West,42244,667-133-01,blairphilip@example.net,Port Melissa,Dominican Republic
Pr7365,1466,Flores-Gomez,49441,589-133-15,julie35@example.com,New Patriciafurt,Mongolia
Pr7366,2609,Burgess- Waters and Romero,39382,440-926-58,melissahale@example.net,Chaseview,Benin
Pr7367,1905,Foley- Lee and Austin,22500,729-924-48,brianbrown@example.org,Lake Michaelfurt,Togo
Pr7368,1032,Griffith Group,30891,112-813-73,oedwards@example.org,New Suzannetown,Hungary
Pr7369,3458,Marshall Inc,18555,878-193-23,stephanieclark@example.com,West Ashleyfurt,Austria
Pr7370,2216,Brooks LLC,30737,141-854-91,loriwhite@example.com,Jamesshire,Armenia
Pr7371,3182,Stephens-Reeves,49925,973-746-26,brendacurry@example.com,Lake Summer,Finland
Pr7372,2087,Gill- Jones and Ford,29085,408-094-42,wilsonjohn@example.net,Chambersfurt,Niger
Pr7373,1884,Quinn Group,44754,554-190-76,lisa60@example.org,Jessicaberg,Qatar
Pr7374,1544,Wheeler-Calderon,17607,422-585-44,thomas80@example.com,East Sarah,Greenland
Pr7375,2775,Morgan-Pruitt,22503,625-519-82,georgeporter@example.net,Christopherhaven,Botswana
Pr7376,1139,Chang-Richard,46293,239-750-45,maguilar@example.net,Charlesville,Madagascar
Pr7377,3999,Diaz PLC,37736,605-723-48,coxkelly@example.net,Cristinaborough,Italy
Pr7378,4455,Hamilton-Rose,49983,915-319-02,carterrobin@example.net,East Sara,Suriname
Pr7379,1613,Blankenship- Harper and Gordon,31792,974-356-15,anthonygutierrez@example.com,Jessicafurt,Antigua and Barbuda
Pr7380,2335,Wong-Mccoy,29703,950-605-58,jonesjennifer@example.net,East Louis,Turkey
Pr7381,4258,Butler Inc,28163,327-314-10,adam74@example.org,Tracybury,Iran
Pr7382,3773,Coleman Ltd,19287,458-205-57,stephanie81@example.org,Gillton,Hungary
Pr7383,1182,Cooley-Mccoy,38956,526-111-57,taralin@example.org,South Daleland,Timor-Leste
Pr7384,1599,Bradley- Hicks and Johnson,31649,314-835-16,daviddeleon@example.org,Shannonton,Heard Island and McDonald Islands
Pr7385,3121,Jacobs- Smith and Schaefer,34855,441-231-32,kellydennis@example.org,Brendamouth,Bahamas
Pr7386,2284,Williams-Green,27172,799-457-39,gcole@example.com,Richardberg,Bhutan
Pr7387,2606,Meyer-Washington,33566,279-340-95,lwashington@example.com,North Josemouth,South Georgia and the South Sandwich Islands
Pr7388,3133,Lawrence- Velasquez and Smith,18940,362-698-60,whitecolleen@example.com,Clarkshire,Fiji
Pr7389,3475,Zamora-Pierce,26795,752-417-74,emiles@example.org,Baileyville,Togo
Pr7390,2982,Brady- Petty and Reeves,40200,434-487-29,shawnward@example.org,Port Jeffreychester,Guatemala
Pr7391,1935,Stevens- Murphy and Mitchell,19106,562-353-73,darren38@example.net,Weberside,Chile
Pr7392,4307,Jenkins-Bishop,45312,856-024-66,xmills@example.net,New Michaelchester,Kyrgyz Republic
Pr7393,3837,Hernandez and Sons,17456,637-491-46,jessica46@example.com,New David,Nigeria
Pr7394,3258,Wright-Jones,28146,227-571-53,aaron20@example.net,Nicholasland,Belarus
Pr7395,4627,Kim- Mason and Lewis,26469,203-269-29,garnerjohn@example.com,East Connor,Bangladesh
Pr7396,3085,Baker Inc,38956,349-122-36,mkaufman@example.net,South Andrew,Grenada
Pr7397,4032,Wilson LLC,31196,311-770-92,nicholaspatterson@example.com,New Angela,Libyan Arab Jamahiriya
Pr7398,2742,Adkins- Burton and Hamilton,42760,590-743-18,danielreid@example.com,Ortizborough,Maldives
Pr7399,2582,Walker- Brady and Bennett,30447,481-743-39,pamelabeard@example.com,Proctorfort,United Arab Emirates
Pr7400,3767,Henry-Scott,25187,899-018-91,elizabethbrown@example.com,West Jeromemouth,Sao Tome and Principe
Pr7401,4354,Price- Vasquez and Mitchell,41340,915-777-20,lrobbins@example.org,Deniseville,Bolivia
Pr7402,1495,Baker-Charles,45781,883-810-78,mark51@example.net,Williamsside,Congo
Pr7403,3095,Fuller Ltd,45422,712-618-99,turnerashley@example.net,Graystad,French Southern Territories
Pr7404,4593,Allen-Wright,25778,399-550-24,michaelbaker@example.com,Lake Jeremy,Equatorial Guinea
Pr7405,1801,Johns- Huang and Owen,20168,714-361-59,kochelizabeth@example.org,Jonesmouth,Vietnam
Pr7406,1702,Moore- Andrews and Thompson,35908,251-985-70,martinezamy@example.com,Mckinneymouth,Marshall Islands
Pr7407,1172,Jones- Rice and Rojas,30123,965-741-14,dawnjohnson@example.org,Port Laura,Nauru
Pr7408,3776,Brown-Scott,46968,734-891-81,obriensara@example.net,Wardfort,Belize
Pr7409,898,Sanders- Evans and Kramer,31208,844-084-02,keith87@example.org,West Matthew,Singapore
Pr7410,1316,Garcia- Taylor and Thomas,36441,649-055-41,patriciarowe@example.com,New Michael,Iran
Pr7411,3851,Mccarthy-Parrish,25215,836-052-86,brianna42@example.net,Lauriefort,North Macedonia
Pr7412,4362,Cisneros Ltd,46652,177-602-55,kaylaclark@example.org,South Doriston,Kenya
Pr7413,4726,Phillips- Cunningham and Schultz,34357,787-644-31,hholmes@example.org,Kingtown,France
Pr7414,1209,Parks Inc,25930,267-253-54,watsonmatthew@example.org,Lake Mary,Indonesia
Pr7415,4078,Pineda-Gray,33713,132-121-00,murphydennis@example.net,Lebury,Samoa
Pr7416,3101,Evans-Lindsey,34971,731-002-77,shariburton@example.org,North Maryland,Bosnia and Herzegovina
Pr7417,2845,Rosales-Bryan,38171,852-058-22,djackson@example.net,Jimenezport,Northern Mariana Islands
Pr7418,663,Johnson Group,48499,362-288-72,michaelpeterson@example.org,Gonzalezborough,Lesotho
Pr7419,1543,Banks- Hernandez and Ortiz,34704,913-851-45,courtneywilliams@example.com,Mariechester,Cocos (Keeling) Islands
Pr7420,820,Martin- Shaffer and Tucker,48584,909-428-49,sierrabrown@example.com,Smithmouth,Netherlands Antilles
Pr7421,2290,Garcia Ltd,38878,682-970-62,csmith@example.org,Ryanland,Iceland
Pr7422,1667,Hall-Schneider,47896,976-939-73,aburns@example.com,Jensenhaven,Tonga
Pr7423,3391,Hess-Lam,43983,980-599-57,heatherarmstrong@example.net,Alvarezberg,South Africa
Pr7424,4527,Gallegos- Parker and Carpenter,32249,987-100-35,valenciakristina@example.com,South Jesseberg,Seychelles
Pr7425,823,Turner-Perez,22918,269-734-80,grace05@example.com,Griffinport,Algeria
Pr7426,2094,Barajas and Sons,41085,517-129-79,ballamber@example.org,Sheenamouth,Martinique
Pr7427,3002,Ray-Ramirez,36392,306-605-90,stephensgarrett@example.org,Elizabethbury,Algeria
Pr7428,4354,Hawkins- Flynn and Thompson,15768,740-429-44,mschroeder@example.net,North Christopher,Finland
Pr7429,3308,Powers PLC,25001,831-795-80,laurabautista@example.org,North Joseph,Central African Republic
Pr7430,3748,Richardson- Brown and King,38128,616-382-75,pauljones@example.net,West Hollyborough,Namibia
Pr7431,1212,Shelton-Ramirez,32843,158-217-57,vsantana@example.com,Toddmouth,Saint Barthelemy
Pr7432,3506,Patel-Hudson,19971,254-316-45,suzannerodriguez@example.org,New Matthewstad,Norway
Pr7433,4530,Chan Ltd,44727,242-744-05,osmith@example.net,Skinnerborough,Georgia
Pr7434,4177,Miller- Waters and Martinez,16459,635-430-16,millerjustin@example.net,New Phillipfort,Mayotte
Pr7435,2348,Jones- Vasquez and Johnson,20935,573-986-89,cantrellfrank@example.net,East Angelatown,Aruba
Pr7436,3880,Baxter-Wood,39447,549-246-69,cmitchell@example.net,Port Donald,Antarctica (the territory South of 60 deg S)
Pr7437,3042,Vaughn- Martinez and Anderson,18764,299-212-15,tking@example.net,Lisamouth,United States Minor Outlying Islands
Pr7438,744,Chandler- Smith and Brown,26917,362-845-37,nbenton@example.net,Martinezland,Lesotho
Pr7439,1324,Knight- Wilson and Lucas,43634,122-736-70,ggonzalez@example.org,Stewartton,Nepal
Pr7440,4288,Webb- Cooke and Wilson,48462,124-722-70,muellerjohn@example.net,New Deborahmouth,Anguilla
Pr7441,3977,Ritter- Wong and Hinton,38040,725-900-57,adam96@example.net,Port Michaelbury,Ecuador
Pr7442,3050,Hansen and Sons,33029,254-924-26,brooksamanda@example.com,South Dennisbury,El Salvador
Pr7443,4436,Ward- Richardson and Ward,17910,496-761-92,katherineroberts@example.net,Port Hectormouth,Kenya
Pr7444,4420,Morris-Mahoney,47104,754-807-57,rachel06@example.net,West Jennifer,Tokelau
Pr7445,3195,Moore Inc,34180,254-648-03,jefferyjones@example.org,Lake Cynthiachester,India
Pr7446,2966,Lee Inc,42346,260-462-73,anne68@example.com,Port Barry,Tunisia
Pr7447,4341,Rios and Sons,28008,359-842-11,lisahayes@example.org,Roberttown,Singapore
Pr7448,2634,Lozano and Sons,42466,399-067-74,jason51@example.com,Lake Kellyburgh,Guyana
Pr7449,1273,Garner LLC,23677,228-654-35,emilybird@example.net,Ryanside,Kazakhstan
Pr7450,4348,Jackson- Mitchell and Perkins,17844,561-056-78,william52@example.com,East Sherry,Belgium
Pr7451,2282,Goodwin- Houston and Smith,38583,908-334-30,fpacheco@example.com,Rebeccabury,Rwanda
Pr7452,3420,Warner- Benjamin and Williams,21583,125-143-49,carolynriley@example.net,Lake Brendabury,Sri Lanka
Pr7453,1907,Flores-Hartman,39387,817-559-97,jfreeman@example.org,Morrisbury,Dominican Republic
Pr7454,1111,Payne-Cortez,17894,141-410-62,bgalloway@example.org,North Ianton,Saint Pierre and Miquelon
Pr7455,3092,Garcia-Garcia,47194,966-335-66,rlewis@example.org,Hallfurt,Indonesia
Pr7456,1050,Young-Santiago,48943,729-833-25,tonyacameron@example.net,South Laurenton,New Zealand
Pr7457,3902,Gonzalez- May and Marshall,34660,858-418-62,wperry@example.org,West Karenville,Seychelles
Pr7458,1760,Soto- Smith and Edwards,20177,283-204-99,kbrown@example.net,Andersonside,Bolivia
Pr7459,2888,Mclaughlin- Hernandez and Cox,33603,537-650-77,maddenwendy@example.com,North Tina,Brazil
Pr7460,4383,Guerrero and Sons,21628,331-095-85,lcunningham@example.net,Higginsfurt,Dominican Republic
Pr7461,3951,Dillon- Anderson and Baker,23013,728-392-00,kevinhutchinson@example.org,Walkerberg,San Marino
Pr7462,4540,Cordova-Stafford,36076,515-999-94,aaron90@example.net,Wolfechester,Congo
Pr7463,4289,Bryant- Graham and Cochran,33419,274-908-70,eharrison@example.com,Harringtontown,Brazil
Pr7464,2971,Gates-Smith,42880,641-031-60,pottskatherine@example.com,Ericport,Belize
Pr7465,2821,Young Inc,40745,690-337-95,derrickwillis@example.org,Evansborough,Taiwan
Pr7466,1039,Sanchez- Meadows and Bray,32426,322-060-30,thorntonjanice@example.org,South Steven,Mauritius
Pr7467,2109,Horton Group,34630,365-693-00,davisdiane@example.net,Lake Thomas,French Southern Territories
Pr7468,947,Boyd LLC,18846,984-696-78,michaelbailey@example.net,Lake Vincent,Mexico
Pr7469,3094,Munoz- Johnson and Morgan,37245,440-927-83,nicholasallen@example.net,Bankstown,Congo
Pr7470,3193,Smith-Crosby,39334,851-158-73,jimlloyd@example.org,South Martintown,Brazil
Pr7471,3474,Hughes-Marshall,45352,754-146-79,shawnrichardson@example.org,Lake Mary,Jordan
Pr7472,4667,Glover- Aguilar and Mccall,20754,704-381-50,jennifer57@example.com,Port David,Saint Helena
Pr7473,1120,Jackson- Martin and Carlson,20127,876-377-30,taylorlarson@example.org,Port Sarahland,Antigua and Barbuda
Pr7474,4164,Lee-Hawkins,15670,952-019-75,manningandrew@example.net,Lake Rogerhaven,Jamaica
Pr7475,1942,Reed-Foster,24519,687-844-15,taylornicole@example.com,Fieldshaven,Venezuela
Pr7476,2343,Parker Ltd,36277,227-324-61,karencannon@example.com,Josefort,Turks and Caicos Islands
Pr7477,3021,Arias Group,18574,203-999-85,robertsingleton@example.org,Silvamouth,Tanzania
Pr7478,3529,Welch Ltd,34007,150-951-95,jodihunter@example.org,Caseystad,Guyana
Pr7479,4092,Zavala LLC,44549,156-121-67,breannajohnson@example.org,Devinview,Israel
Pr7480,4198,Parker and Sons,29604,484-764-36,sandra80@example.org,Mcdonaldfort,Tokelau
Pr7481,1803,Le and Sons,34291,982-796-27,nmorris@example.org,New Meganmouth,Madagascar
Pr7482,4658,Orozco and Sons,46397,903-916-74,eduardo20@example.org,Petersonfurt,Lithuania
Pr7483,2734,Owens-Glenn,29598,528-493-44,mannjames@example.com,Mitchellchester,United States of America
Pr7484,4647,Harrison- Hernandez and Dean,48529,428-817-50,william15@example.com,Patriciashire,Norfolk Island
Pr7485,4522,Bowen Inc,21763,432-450-11,hscott@example.org,Richardchester,Togo
Pr7486,1068,Ballard- Johnson and Jones,47509,748-400-93,mckenziemichael@example.com,East Johnny,Northern Mariana Islands
Pr7487,615,Delacruz-Lucero,19823,997-397-40,karenchambers@example.org,Jerrymouth,Malawi
Pr7488,4010,Jones- Stokes and Walker,26957,983-050-57,david82@example.org,Hannahmouth,Niue
Pr7489,1989,Berger- Burch and Hurst,20589,568-338-29,robert99@example.com,Rayview,Anguilla
Pr7490,1380,Kelly- Harrison and Harmon,35782,256-227-21,john79@example.net,West Dylanside,Korea
Pr7491,3742,Smith-Fisher,40654,662-358-26,rmiller@example.com,Sanchezfort,Bosnia and Herzegovina
Pr7492,2813,Hawkins-Kline,22010,436-102-48,robertparsons@example.org,Ericfurt,Tokelau
Pr7493,3741,Garcia- Sloan and Patton,38486,422-732-68,rachael76@example.net,Hernandezview,Nigeria
Pr7494,4516,Salinas-Glover,26393,271-054-12,mholmes@example.net,North Micheal,Turkey
Pr7495,4505,Young PLC,25569,831-485-98,kimleach@example.com,Amybury,Saint Lucia
Pr7496,4187,Nelson Inc,32515,211-376-97,ilopez@example.com,South Derrick,Jersey
Pr7497,3131,Allen Group,26840,614-990-72,dixonsteven@example.com,Port Michaelshire,American Samoa
Pr7498,2663,Johnson PLC,43080,905-459-34,uzavala@example.com,East Kevinfort,Aruba
Pr7499,2376,Day- Henry and Perez,33740,700-562-73,qadams@example.org,Burnsbury,Martinique
Pr7500,4494,Luna-Costa,17539,317-934-87,esolomon@example.net,East Margaret,Gambia
Pr7501,4737,Kaiser PLC,33916,540-539-46,alejandromejia@example.org,South Charlesborough,Cook Islands
Pr7502,1629,Green Ltd,39949,571-702-08,galvarado@example.org,Lake Heathertown,Mali
Pr7503,3632,King PLC,48783,435-723-37,kristy88@example.net,Millsview,Indonesia
Pr7504,2068,Taylor-Olsen,23735,431-036-71,djames@example.net,Lake Carol,Yemen
Pr7505,3886,Nguyen- Maynard and Harvey,38787,968-431-42,melissacase@example.com,Duartemouth,Saudi Arabia
Pr7506,3149,Jones- Diaz and Stewart,30097,756-402-93,spittman@example.net,Taraland,Macao
Pr7507,1733,Dominguez-Collier,45772,532-359-32,csullivan@example.com,North Johnview,North Macedonia
Pr7508,2470,Gonzalez-Robertson,30755,116-461-03,helen76@example.net,New Hayleyfurt,Finland
Pr7509,4152,Palmer-Chavez,42124,649-695-73,christopher26@example.net,North Jeremiah,Saint Pierre and Miquelon
Pr7510,3697,Jackson Inc,47591,102-230-17,samuelserrano@example.net,Elizabethmouth,Sweden
Pr7511,1259,Carter- Nichols and Kerr,22962,264-164-33,carterrandy@example.com,East Jasmine,Nigeria
Pr7512,3739,Frank- Rodriguez and Thompson,37762,134-993-10,websterwesley@example.com,East Scottburgh,Mozambique
Pr7513,4164,Boyd- Gilbert and Meyers,26410,549-960-03,stephaniedillon@example.com,Dannybury,British Virgin Islands
Pr7514,1086,Ballard-Weber,23925,289-509-48,julie94@example.org,Lake Levichester,Micronesia
Pr7515,4148,Lane Inc,24201,891-107-05,johnsonmatthew@example.com,South Jennifer,Turks and Caicos Islands
Pr7516,3402,Tucker Group,42875,657-057-85,ogibson@example.org,Dorseyfurt,Palestinian Territory
Pr7517,4143,Lopez- Thornton and Ford,24011,829-848-45,eric35@example.net,Lake Julie,Puerto Rico
Pr7518,3003,Mitchell-Peterson,17453,100-365-41,kbarnett@example.net,Hernandezfurt,Morocco
Pr7519,2916,Hammond Inc,38000,836-600-41,spearsolivia@example.org,East Marissa,Monaco
Pr7520,3104,Richard Ltd,17627,671-562-30,shannon29@example.com,Lake Brandon,Congo
Pr7521,3493,Lewis- Kelly and Bailey,27226,119-675-37,patelmary@example.com,New Robin,Suriname
Pr7522,1860,David-Thompson,42899,750-506-80,thomas86@example.net,Robertschester,Cape Verde
Pr7523,1504,Dudley-Mitchell,34712,258-058-60,kevinfigueroa@example.org,Port Samuel,Estonia
Pr7524,4077,Briggs- Smith and Barr,44705,221-069-67,johnjackson@example.net,West Ronnie,Bahrain
Pr7525,4663,Diaz Ltd,42644,546-684-24,whiteheadsarah@example.org,Lake Howard,Zambia
Pr7526,782,Mccall Ltd,20925,871-985-64,tonyclark@example.com,Lake Stacy,Philippines
Pr7527,2691,Cox- Watkins and Conley,36299,497-035-13,mary24@example.com,South Shawnville,Micronesia
Pr7528,2054,Banks-Martin,22169,957-528-74,evanandrews@example.com,Port Jasonstad,Mauritius
Pr7529,4011,Davis-Brown,29147,429-644-23,agarcia@example.org,Port Hannah,Belarus
Pr7530,935,Bush Group,29848,352-854-19,charlottenorris@example.net,Lake Dakota,Philippines
Pr7531,4530,Gomez- Silva and Miller,48148,509-823-32,umitchell@example.com,West Craig,Kazakhstan
Pr7532,4464,Robinson- Frank and Bryant,35577,552-187-17,deborahmurphy@example.com,Kristinstad,North Macedonia
Pr7533,3670,Ramos LLC,45011,204-477-01,gsimon@example.com,West Ericmouth,Malaysia
Pr7534,1806,Rice Group,42426,445-574-64,williamjackson@example.org,Lake Cody,Iran
Pr7535,4521,Hebert PLC,16509,452-863-36,alexander92@example.org,East Michaelview,Spain
Pr7536,1803,Watson-Freeman,24440,386-535-93,rachelwarner@example.org,Michaelburgh,Bolivia
Pr7537,1527,Gilmore-Reyes,16559,985-666-64,craiggibbs@example.com,Tranfort,Portugal
Pr7538,3129,Martin-Edwards,39105,621-450-38,carriehill@example.net,South Davidmouth,Saudi Arabia
Pr7539,3615,Ball- Williams and Austin,28503,111-647-41,jenningsdavid@example.net,New Rachelbury,Samoa
Pr7540,3737,Hartman LLC,26889,506-892-58,acannon@example.com,Ferrellmouth,Faroe Islands
Pr7541,1260,Johnson- Pierce and Morris,38411,801-374-30,mcculloughphillip@example.com,Port Diamondtown,Montenegro
Pr7542,3775,Wheeler Group,48083,519-676-66,richard30@example.org,South Martha,Mozambique
Pr7543,3202,Williams-Lee,19698,512-448-87,barnesjames@example.net,North Sean,Korea
Pr7544,2936,Lopez PLC,39057,640-279-82,figueroamorgan@example.com,New Jonathanton,Cambodia
Pr7545,4500,Rhodes LLC,36182,147-331-80,anna03@example.com,Pooletown,Tunisia
Pr7546,4689,Silva-Davis,25881,299-450-62,jennifer26@example.org,Olsonberg,Lebanon
Pr7547,1913,Pham-Anderson,42533,508-034-03,brianna56@example.com,Port Nathanberg,Zimbabwe
Pr7548,4697,Lewis- Morgan and Singleton,46628,173-882-19,aadkins@example.com,West Joshua,Honduras
Pr7549,2698,Shaw Inc,39846,186-469-52,tammy87@example.net,Lake Kristentown,Guam
Pr7550,2740,Henry LLC,40115,187-020-90,marycasey@example.org,North Caseystad,Oman
Pr7551,3747,Miller-Walsh,37399,729-264-38,jessica49@example.com,North Mallorychester,North Macedonia
Pr7552,4484,Spencer-Perez,34153,690-376-27,randy65@example.org,Port Josephmouth,New Caledonia
Pr7553,3034,Diaz PLC,31393,833-292-42,urodriguez@example.net,Johnsonmouth,Kazakhstan
Pr7554,2204,Conner LLC,34961,438-609-48,leedavid@example.net,South Larry,Saint Martin
Pr7555,2293,Liu-Wells,35412,558-069-09,bryan16@example.org,East Johnberg,Sao Tome and Principe
Pr7556,1373,Wagner- Larson and Sullivan,35255,831-468-63,sheaernest@example.com,Byrdburgh,Estonia
Pr7557,2955,Gonzalez-Powell,24612,886-619-26,daniellefisher@example.org,Taylorstad,Antarctica (the territory South of 60 deg S)
Pr7558,3830,Clark Group,32063,901-694-76,qlambert@example.org,North Elizabeth,Equatorial Guinea
Pr7559,4358,Krueger- Graham and Hammond,19084,778-292-72,kristin77@example.com,Mccoyland,Denmark
Pr7560,600,Evans-Grimes,22044,360-921-30,mphillips@example.com,West Sarah,North Macedonia
Pr7561,716,Holt LLC,42657,677-676-48,oknight@example.com,Shelbytown,Botswana
Pr7562,2624,Garcia Ltd,29432,333-321-83,bholt@example.org,Jenningsshire,Ecuador
Pr7563,3317,Smith- Carlson and Shea,17963,417-255-54,sfoster@example.com,North Ianside,Brunei Darussalam
Pr7564,3355,Wiley PLC,40479,361-658-64,jeremy83@example.net,Michaelhaven,Georgia
Pr7565,3536,Wells-Jordan,29197,339-314-30,miranda16@example.net,Lake Tarachester,Cayman Islands
Pr7566,4032,Wiggins Group,25670,827-642-48,kennedyteresa@example.org,Mercedesmouth,French Southern Territories
Pr7567,2068,Rodgers Ltd,37985,508-443-15,jwood@example.net,Lake Meganville,Tokelau
Pr7568,4635,Smith-Robinson,18746,103-965-27,gsimpson@example.org,West Cindy,Tanzania
Pr7569,1278,Smith LLC,43253,182-615-71,thompsonrobert@example.com,Bernardville,Bermuda
Pr7570,1675,Gallegos Group,39310,512-192-13,martinlori@example.com,Triciaberg,Iceland
Pr7571,513,Robbins- Cameron and Lee,33445,686-019-08,timothynelson@example.com,Wellsbury,Netherlands Antilles
Pr7572,1421,Lewis and Sons,44668,188-791-91,thompsonalan@example.net,East Donna,Guinea
Pr7573,3449,Bryant-Warren,27739,284-802-11,lance04@example.com,Heatherstad,Hungary
Pr7574,4675,Mills Ltd,23024,969-946-52,uneal@example.com,Alvarezport,Belgium
Pr7575,3127,Cook- Jackson and Bennett,25631,377-440-81,kimberlybarrett@example.net,Joycefort,Bermuda
Pr7576,1664,Johnson-Wright,47382,387-402-50,peterpittman@example.org,Alecside,San Marino
Pr7577,3458,Dorsey PLC,27044,647-288-85,parrishandrew@example.net,Pearsonborough,Malta
Pr7578,1439,Andersen and Sons,38533,788-996-23,nrandolph@example.com,Lake Davidton,Somalia
Pr7579,1519,Reyes- Navarro and Salazar,33272,205-841-25,mirandakaren@example.com,Salazarton,Malawi
Pr7580,3864,Lutz Ltd,39925,474-647-94,branchjillian@example.net,Lisastad,Seychelles
Pr7581,572,Crawford Group,24631,721-741-27,curtisford@example.org,Chenfurt,Turks and Caicos Islands
Pr7582,1398,Davenport-Price,33216,630-361-58,powersjennifer@example.org,Keithshire,Belize
Pr7583,1871,Ellis PLC,27724,437-599-72,barbara75@example.com,Williamland,Bouvet Island (Bouvetoya)
Pr7584,4629,Sanders-Lee,47784,939-916-14,tylerboyd@example.net,Port Robert,Luxembourg
Pr7585,1774,Mcbride-Adkins,19980,937-723-15,simontonya@example.org,Lauraland,Sweden
Pr7586,4545,Black- Jackson and House,47635,999-981-46,samuelevans@example.net,Berryside,Moldova
Pr7587,3115,Griffin- Zimmerman and Parker,15657,415-719-24,smithkatelyn@example.com,East Richardchester,Puerto Rico
Pr7588,4037,Ford Ltd,37106,149-111-06,johnmendoza@example.net,Smithchester,Turks and Caicos Islands
Pr7589,3174,Weiss Inc,25786,635-002-50,sgarza@example.com,New Denise,Bolivia
Pr7590,1911,Martinez-Dennis,28484,814-192-48,lanegregory@example.org,West Linda,Dominican Republic
Pr7591,940,Mendoza Inc,27110,425-685-11,zlee@example.com,East Ashley,Saint Martin
Pr7592,554,Sanchez and Sons,42027,578-154-91,fclark@example.net,Port Benjaminborough,Germany
Pr7593,2127,Johnson Group,43606,302-766-28,tinagraves@example.org,Rebeccaville,Belize
Pr7594,1011,Williams Inc,16765,174-661-99,nicholas85@example.org,West Jessica,Cyprus
Pr7595,4060,Jacobson- Santiago and Lewis,26207,786-378-58,david05@example.org,Cherylshire,Israel
Pr7596,3310,Hughes- Wiley and Espinoza,30322,306-724-03,bradyjames@example.org,Samuelchester,United Arab Emirates
Pr7597,3070,Martinez-Jennings,30353,299-955-33,kelleytheresa@example.net,Taylorport,Kiribati
Pr7598,2216,Guerra-Goodman,19541,982-991-33,john29@example.net,Julieland,Italy
Pr7599,3341,Johnston-Williams,39705,375-508-39,washingtonsarah@example.org,Fergusonstad,Marshall Islands
Pr7600,3406,Patterson- Neal and Castillo,29427,573-349-83,stacy24@example.net,Jessicaborough,Georgia
Pr7601,4104,Gomez-Hunt,43960,808-812-35,nwiggins@example.net,Staceytown,Wallis and Futuna
Pr7602,1542,Daniels- Ward and Thompson,34998,113-314-83,mcastillo@example.com,Michelebury,South Africa
Pr7603,2221,Sanders-Ellis,42343,779-450-34,lynchpaula@example.com,Wandaside,Montserrat
Pr7604,3388,Rollins- Foster and Mccoy,23628,417-071-38,karen43@example.com,West Paul,Sri Lanka
Pr7605,1996,Murphy- Mcdowell and Osborn,38864,916-872-47,melissasmith@example.net,Port David,Philippines
Pr7606,4032,Mcdonald Inc,17134,486-497-19,sarah09@example.com,Garciaside,Christmas Island
Pr7607,2228,Roberts- Ward and Robertson,47285,394-144-63,kelleyronald@example.com,Courtneystad,Latvia
Pr7608,1697,Martinez- Ramsey and Clark,29608,539-865-33,alexisbryan@example.net,Port Adam,Solomon Islands
Pr7609,1198,Dyer- Pace and Dickerson,49732,144-693-12,margaretheath@example.net,Port Jamesmouth,Tonga
Pr7610,4602,Pacheco Ltd,25411,926-668-04,qhoward@example.org,West Danielleborough,Moldova
Pr7611,1046,Gomez-Ortiz,43390,688-294-64,colleen40@example.com,Jonesshire,Martinique
Pr7612,4698,Cabrera LLC,28534,420-510-17,richardhorn@example.net,Thomasmouth,Israel
Pr7613,1607,Meyer-Sanders,47978,504-273-09,perry82@example.com,West Paula,Serbia
Pr7614,3956,Freeman-Hale,15596,439-433-57,cantrelljuan@example.org,Port Micheleville,Switzerland
Pr7615,4328,Brown-Anthony,41448,247-453-54,kcox@example.com,Markborough,Malawi
Pr7616,2958,Cox- Mitchell and Rogers,30651,867-060-25,ssantana@example.net,Clarkbury,Ethiopia
Pr7617,2379,Torres-Buchanan,44300,689-758-48,ochoadonna@example.net,Davidton,Morocco
Pr7618,3734,Robinson-Marshall,27341,249-881-13,abates@example.com,East Michael,Canada
Pr7619,4282,Estrada-Mitchell,26690,785-305-19,lgriffin@example.org,East Kimberlyshire,China
Pr7620,2105,Montgomery-Williams,31352,279-764-83,jacobsangel@example.org,Hubbardside,Lesotho
Pr7621,2664,Griffin Group,30891,456-891-07,kaufmanfelicia@example.net,West Michael,Italy
Pr7622,3940,Santiago and Sons,19818,617-448-47,barronlinda@example.net,South Laurenville,Egypt
Pr7623,2190,Wilson-Brooks,18084,537-127-44,nicholasali@example.org,Brownton,Micronesia
Pr7624,1761,Warren LLC,25111,523-462-80,nicholsmatthew@example.org,Jasonmouth,Romania
Pr7625,2106,Escobar Group,42181,735-314-88,gonzalesjuan@example.net,Johnsonbury,Bhutan
Pr7626,4680,Young PLC,28478,650-035-15,mackcarolyn@example.org,New John,Tunisia
Pr7627,2467,Ruiz-Le,32657,701-861-88,sanchezkimberly@example.com,South Kristenville,Indonesia
Pr7628,1301,Cole- Weber and Santiago,38910,831-836-74,enavarro@example.net,Danielborough,Azerbaijan
Pr7629,1911,Martin Ltd,46168,225-689-74,dominguezomar@example.org,New Brianville,Somalia
Pr7630,2712,Rodriguez Inc,30565,371-575-07,mark71@example.org,South James,Solomon Islands
Pr7631,3200,Stafford Group,48453,238-987-59,xjones@example.org,Lake Jasonland,Guernsey
Pr7632,1310,Kirk- Mitchell and Mora,36719,692-690-39,christopher75@example.net,South Charlesville,Botswana
Pr7633,2784,Lang-Cooper,26012,148-158-52,shanestein@example.com,North Faith,Mozambique
Pr7634,3893,Hughes LLC,38715,155-204-43,jasonjordan@example.com,Ellisfurt,Gambia
Pr7635,4369,Jennings- Richard and Mata,39613,426-173-76,delgadojoel@example.org,West Howard,Saint Lucia
Pr7636,1089,Hunter-Robles,15866,136-530-47,stephen56@example.net,Robinsonville,Vanuatu
Pr7637,2438,Franklin-Harris,49874,456-098-46,brenda10@example.net,East Timothyhaven,Botswana
Pr7638,4484,Short Ltd,25144,236-912-45,kadkins@example.net,East Timothy,Guam
Pr7639,1503,Hudson- Clark and Ingram,31512,508-757-80,jsmith@example.net,West Alexaton,North Macedonia
Pr7640,1540,Rose-Morse,29362,408-528-69,jeanettelamb@example.org,Lawsonstad,Czech Republic
Pr7641,3701,Martin-Morrow,17416,908-413-54,jacob61@example.org,West Dustin,Senegal
Pr7642,1279,Hess-Wells,27154,747-107-27,shawn80@example.com,South Lisafurt,Vanuatu
Pr7643,3259,Shea- Jenkins and Ortega,35647,869-299-39,hfrancis@example.com,West Timothy,Faroe Islands
Pr7644,3927,Nunez- Smith and Best,43900,509-772-40,thomasbarbara@example.net,Ronaldside,Guinea
Pr7645,2234,Brewer- Walker and Herrera,18797,961-931-15,hoopergeorge@example.org,Jessicaton,Mauritius
Pr7646,1604,Martin- Wu and Garner,39868,529-059-01,ashley87@example.net,North Ashley,Canada
Pr7647,2098,Macdonald Inc,48283,342-860-68,eholland@example.com,Daniellechester,Gibraltar
Pr7648,4597,Wright PLC,28372,521-587-67,lindsay89@example.com,Port Jessica,Senegal
Pr7649,822,Boyer- Perry and Hensley,19112,273-811-74,srussell@example.org,New Paul,Kenya
Pr7650,4683,Scott PLC,31437,815-794-19,baileybryan@example.org,West Carl,Jersey
Pr7651,2589,Huff Group,41208,415-762-26,lauren63@example.com,Jeffview,Martinique
Pr7652,3900,Anderson Ltd,36167,623-263-84,owatson@example.net,East Anna,Guadeloupe
Pr7653,2940,Thomas-Morgan,24243,685-812-20,bryan40@example.org,Paulstad,Saudi Arabia
Pr7654,2305,Cummings Inc,32986,752-176-84,etorres@example.com,Barkerton,Peru
Pr7655,4007,Bowman-Newman,31876,894-994-72,pamelascott@example.com,Aguilarchester,Bhutan
Pr7656,2087,Turner and Sons,22253,225-493-89,tonimoore@example.net,East Brittney,Namibia
Pr7657,1039,Padilla Inc,15755,791-888-52,nayala@example.net,Josephland,Bhutan
Pr7658,2977,Garza Group,36154,223-809-37,stewartdonald@example.net,Lake Sharon,Israel
Pr7659,3843,Martinez Group,34027,620-080-43,pateldavid@example.net,South Michael,Croatia
Pr7660,4345,Smith- Oconnor and Boone,43705,767-232-10,leonardjohn@example.net,Fisherborough,Congo
Pr7661,1894,Carter-Hall,34921,622-290-01,hstone@example.org,Lake Antonio,Reunion
Pr7662,2688,Crane- Clayton and Rodriguez,31033,804-827-68,ortegakayla@example.org,Jacksontown,United Kingdom
Pr7663,1366,Walker Group,45052,933-778-47,christinacombs@example.org,Reidland,Guyana
Pr7664,3146,Bailey- Mitchell and Byrd,43311,209-594-52,gibsonkenneth@example.org,Huntmouth,Cayman Islands
Pr7665,3003,Williams-Caldwell,46670,665-194-18,qlee@example.org,Port Teresaberg,Saudi Arabia
Pr7666,1801,Wilson Inc,21854,637-082-28,james05@example.net,Robertsville,Uganda
Pr7667,3155,Smith Group,27889,553-652-45,ecaldwell@example.net,Port Julian,Ethiopia
Pr7668,2645,Goodwin-Grant,31408,925-425-94,gfigueroa@example.org,South Marc,Samoa
Pr7669,3638,Cox- Saunders and Allen,36514,624-703-47,zmcdowell@example.com,Ericaview,Grenada
Pr7670,3599,Shelton- Gonzalez and Mathis,18162,824-987-96,shepardsarah@example.com,Martinmouth,Central African Republic
Pr7671,1237,Lane-Rodriguez,32285,514-172-52,cervantesbrett@example.com,Parksmouth,Liechtenstein
Pr7672,1934,Smith Inc,19162,103-689-09,geraldmorrison@example.org,Cummingstown,Morocco
Pr7673,2888,Edwards- Fritz and Campbell,40144,863-173-59,matthew58@example.org,Joshuaview,Montenegro
Pr7674,2259,Clark-Chandler,42851,352-625-65,deannamason@example.net,East Stephenport,Belgium
Pr7675,1945,Hill Inc,38968,966-186-25,julia30@example.com,Jacobfort,Spain
Pr7676,1181,Russell- Palmer and Ochoa,39692,245-233-12,zjones@example.org,North Charleston,Kyrgyz Republic
Pr7677,3723,Sullivan- Shaw and Henderson,34443,324-010-34,andrewstone@example.net,Lake Ericborough,French Guiana
Pr7678,584,Cervantes-Carter,44932,231-458-03,sarahburton@example.org,Lake Christybury,Sudan
Pr7679,4686,Finley-Weaver,42132,755-279-33,moorekyle@example.org,Tammyview,Trinidad and Tobago
Pr7680,1512,Harris- Phillips and Miller,44320,739-076-79,kim04@example.org,East Thomas,Vanuatu
Pr7681,3708,Reynolds-Garcia,20253,923-146-76,sandradyer@example.net,South Craig,Kyrgyz Republic
Pr7682,3095,Tate- Carter and Durham,31830,150-538-28,allenbreanna@example.net,Rodrigueztown,Martinique
Pr7683,594,Chavez-Martinez,43719,344-129-48,gonzalezalyssa@example.net,Anthonyland,Christmas Island
Pr7684,3646,Hale-Vaughn,36357,382-047-29,latashalawrence@example.org,Gonzaleston,Hungary
Pr7685,4461,Sandoval- Barber and Rivera,48818,668-966-75,angelashea@example.com,Jenniferfort,Suriname
Pr7686,1954,Fernandez-Martin,21709,218-663-85,hernandezdawn@example.com,Davismouth,Estonia
Pr7687,3979,Kent- Jones and Yang,35993,465-112-81,stevencarr@example.org,Rodriguezport,Australia
Pr7688,1664,Wall Inc,33721,853-163-88,julia27@example.com,Hudsonchester,Korea
Pr7689,3465,Clark- Burke and Mcgee,49498,344-705-23,joshuagomez@example.org,Sheilaview,Somalia
Pr7690,2074,Jordan and Sons,47580,762-298-14,rodriguezcarrie@example.net,South Lindsay,Niue
Pr7691,3788,Taylor- Ford and Lopez,36085,492-650-33,mckaykevin@example.com,East Melissa,Montserrat
Pr7692,3030,Adams-Bennett,38370,174-731-62,nsmith@example.org,South Michelle,Mongolia
Pr7693,884,Bradford- Ingram and Eaton,29823,962-705-43,ybaker@example.org,West John,Northern Mariana Islands
Pr7694,3465,Deleon PLC,29296,588-608-67,goulderik@example.org,South Marisa,Turkey
Pr7695,3769,Weaver- Williams and Simpson,39025,996-339-63,zevans@example.com,Port Deborahview,Guyana
Pr7696,1193,Farrell- Diaz and Carroll,26310,870-871-44,kellysanders@example.com,Farrellburgh,Guinea-Bissau
Pr7697,2925,Atkins-Miller,20370,900-355-06,brewerkirk@example.net,East Josephbury,United States Minor Outlying Islands
Pr7698,1907,Mccoy- Green and Christian,17327,775-318-18,qwalker@example.net,East Donnaborough,Mauritius
Pr7699,4735,Reed- Bell and Jenkins,32198,596-466-59,marcus16@example.net,Jaredhaven,Western Sahara
Pr7700,1211,Davila Inc,17808,710-259-87,manningnancy@example.com,Danielburgh,United States Minor Outlying Islands
Pr7701,800,Coleman PLC,18013,693-328-65,christopherrichardson@example.com,Andrewland,Malaysia
Pr7702,3476,Campbell-Lewis,23450,769-554-19,rrosario@example.org,Mcclureland,Finland
Pr7703,3327,Chapman- Simmons and Franklin,34481,173-566-06,qhuber@example.com,Conradton,Norfolk Island
Pr7704,3416,Jones- Clark and Chang,42874,271-840-74,yjohnson@example.net,North Dawnburgh,Micronesia
Pr7705,1873,Barrera Group,26732,299-310-29,james41@example.com,Davidfurt,Dominica
Pr7706,2213,Brown PLC,47413,613-161-71,michaelthomas@example.net,West Jaredmouth,Australia
Pr7707,629,Robbins- Salinas and Kelley,16693,145-665-33,carterjoseph@example.com,Faithhaven,Comoros
Pr7708,1646,Burns PLC,35302,648-030-87,cindy55@example.com,Kingfurt,Kazakhstan
Pr7709,882,Ho LLC,26327,794-140-60,sanderson@example.org,Berrymouth,Austria
Pr7710,848,Owens- Johnson and Weber,37129,580-338-55,hernandeztiffany@example.org,East Luisborough,Montserrat
Pr7711,4119,Patterson-Hughes,22067,269-938-83,barbaragreen@example.net,Sanchezside,Seychelles
Pr7712,2389,Griffin- Walsh and Quinn,33216,320-277-52,pramirez@example.org,Knightchester,Cyprus
Pr7713,1867,Johnson PLC,38280,405-623-09,russelltony@example.org,Juliaborough,United Arab Emirates
Pr7714,4088,Sosa Ltd,38922,690-305-11,debraharris@example.com,Port Meagan,Tuvalu
Pr7715,3049,Hunter- Gonzalez and Brown,34147,498-377-72,brian54@example.org,Irwinfurt,Egypt
Pr7716,4484,Jones-Torres,47235,465-054-73,danielmyers@example.net,North Kara,Guinea-Bissau
Pr7717,527,Collins- Robbins and Daniels,33073,538-284-27,ashleytaylor@example.net,West Josephland,Saudi Arabia
Pr7718,3320,Bowman-Lyons,35397,510-425-61,ekelly@example.net,Williamville,Bangladesh
Pr7719,4158,Estrada Inc,23969,945-089-65,mary90@example.org,Heathertown,Madagascar
Pr7720,2165,Holder-Reed,26147,675-432-26,tleon@example.org,Port Paul,Mauritius
Pr7721,2013,Phillips Group,25651,534-284-04,reillychristopher@example.com,Reneeshire,Ethiopia
Pr7722,3074,Hernandez-Kim,30624,615-196-50,wlawrence@example.net,New Dana,Palau
Pr7723,2599,Blair LLC,35041,710-561-16,sarahjames@example.org,North Kendraberg,South Africa
Pr7724,2439,Stevens- Brown and Rangel,29186,584-688-20,tommiranda@example.com,Brownville,Peru
Pr7725,1092,Lucas- Dodson and Perry,20667,591-880-66,proctordavid@example.org,Jessicatown,Albania
Pr7726,3956,Wade Group,47002,455-844-16,justinlandry@example.org,Lake Grant,Netherlands
Pr7727,2871,Pearson PLC,45493,417-047-67,mmiller@example.org,Bowenberg,Korea
Pr7728,644,Vang Group,49147,914-490-78,michael82@example.net,Rogersport,Mayotte
Pr7729,4362,Luna PLC,38305,625-391-67,barrettashley@example.net,Lake Lucasbury,United Kingdom
Pr7730,583,Lyons-Padilla,46124,873-661-47,alexis67@example.org,Torresville,French Southern Territories
Pr7731,4128,Mcclain- Hoover and Johnson,32253,575-311-58,ashley49@example.net,Shellyfort,Angola
Pr7732,1794,Williams-Dixon,17264,729-795-39,burkeshaun@example.com,West Travis,Saint Lucia
Pr7733,2308,Alexander LLC,19253,991-814-38,ebonyhaas@example.com,Port Kimberlystad,Oman
Pr7734,986,Mckenzie-Duffy,40478,317-508-15,jamesdougherty@example.com,New Amandabury,Angola
Pr7735,4336,Adams-Maldonado,37312,995-799-43,martinezmisty@example.org,Lake Jennifer,Isle of Man
Pr7736,1554,Chang Ltd,39487,141-082-69,anna52@example.net,Melanieborough,Dominica
Pr7737,1859,Faulkner- Delgado and Steele,28661,732-361-98,tward@example.net,Christinahaven,Mauritania
Pr7738,711,Ramirez-Miller,43376,856-537-44,derekblake@example.net,West Angelaland,South Georgia and the South Sandwich Islands
Pr7739,2724,Bailey-Wu,45157,247-510-97,fconley@example.com,Holdentown,Puerto Rico
Pr7740,2312,Foster Ltd,32706,959-749-22,campbellalyssa@example.org,New Kellymouth,Saint Pierre and Miquelon
Pr7741,2443,Adams-Cortez,26452,603-249-72,harrisjoseph@example.com,Barbaramouth,Kiribati
Pr7742,2998,Cortez- Harris and Bradshaw,16231,554-805-77,tracy43@example.org,Port Kristinafort,United States of America
Pr7743,2612,Watson- Barker and Cummings,33778,718-927-29,bishopjames@example.net,Sellerstown,United States Virgin Islands
Pr7744,1000,Mason- Thomas and Barnes,49691,216-179-05,ctaylor@example.net,Alexachester,Burkina Faso
Pr7745,3896,Jones- Fletcher and Perez,30729,897-555-62,ortizanne@example.com,South Sandraville,Russian Federation
Pr7746,1910,Ellison-Woodard,40278,573-728-53,kbaxter@example.com,West Christian,Congo
Pr7747,1444,Lawrence-Castro,22407,811-880-35,georgegates@example.org,Lake Caseyshire,Tonga
Pr7748,2812,Osborne Inc,45103,283-250-13,colleen87@example.org,South Janetmouth,Indonesia
Pr7749,1767,Torres- Gallagher and Baker,33885,342-679-69,robertreynolds@example.com,Hollandville,United Kingdom
Pr7750,3122,Allen PLC,16495,257-787-17,kristenscott@example.com,New Meganchester,Iran
Pr7751,1516,Rogers-Henderson,34461,875-282-81,hansenchristina@example.org,Wilsonfort,Turks and Caicos Islands
Pr7752,4623,Walker Group,34934,761-263-47,smithlisa@example.com,North Theresastad,United States Minor Outlying Islands
Pr7753,2743,Lee PLC,16714,227-171-45,justin48@example.net,Port Abigail,Iceland
Pr7754,4598,Mitchell PLC,19313,159-417-36,porterjesus@example.org,Port Kellyhaven,Egypt
Pr7755,2047,Adkins PLC,46624,906-477-15,catherinehart@example.net,West Erinside,Tunisia
Pr7756,1023,Walton- Cooper and Mitchell,33339,573-082-78,zschwartz@example.org,Port Joyside,Comoros
Pr7757,1831,Richard-Cooper,30311,192-489-15,newtonchristina@example.com,Laurachester,Georgia
Pr7758,2869,Sheppard-Williams,29303,572-773-23,suzanneayers@example.net,South Erica,Palestinian Territory
Pr7759,4466,Scott- Anderson and Reed,16327,318-303-06,nixontyler@example.com,West Danielle,South Africa
Pr7760,1847,Ruiz- Williams and Vazquez,47116,403-987-36,michael45@example.net,Floresfurt,Brunei Darussalam
Pr7761,1875,Carter-Taylor,39794,149-452-14,dhernandez@example.com,Jacquelineville,Philippines
Pr7762,2330,Boyer- Sutton and Lopez,40623,415-356-16,kaylee25@example.org,Hancockstad,Tuvalu
Pr7763,2292,Beard and Sons,30348,679-832-55,hgomez@example.com,Ericaville,Jamaica
Pr7764,2683,Patel Ltd,27861,933-727-93,wwilliams@example.org,Stevenschester,Eritrea
Pr7765,1374,Gray-Chase,24100,398-847-33,sharpmary@example.net,East Carolshire,Pakistan
Pr7766,4052,Lee LLC,25695,496-380-41,imoore@example.org,Coxton,Guatemala
Pr7767,4279,Walker-Sanchez,49738,832-710-82,harrisdylan@example.com,Port Sharon,El Salvador
Pr7768,1770,Scott PLC,42498,213-614-64,desireelarson@example.net,New Jocelyn,Congo
Pr7769,4208,Olsen-Reid,34542,484-676-08,hmclean@example.net,Floydhaven,Indonesia
Pr7770,2531,Torres- Orr and Espinoza,18580,289-636-25,miguelduffy@example.org,Braymouth,Sao Tome and Principe
Pr7771,4362,Brown- West and Flowers,37561,161-444-38,tjoseph@example.net,Jeffreyburgh,Liechtenstein
Pr7772,949,Chambers Ltd,42760,832-685-61,tammymitchell@example.com,Russellshire,Jordan
Pr7773,4218,Brown- Fernandez and Ramirez,19435,932-428-94,anthonybullock@example.org,Robbinsstad,Kenya
Pr7774,1805,Gill-Hester,42436,359-233-56,amanda89@example.net,Andersonport,Seychelles
Pr7775,2330,Gomez PLC,47698,729-777-15,madelinemayer@example.net,Lake Kathryn,Belize
Pr7776,2867,Jones- Parker and Booker,39019,525-372-34,tracypatterson@example.org,East Carlastad,Argentina
Pr7777,3160,Ortiz-Dodson,47121,305-687-88,walterzachary@example.com,Lake Michael,Kyrgyz Republic
Pr7778,3542,Harris- Lane and Thomas,39358,322-019-12,sylvia73@example.com,New Jerryberg,Somalia
Pr7779,1129,Williams- Li and Parker,30332,386-584-51,mary74@example.net,Adamfurt,Barbados
Pr7780,1980,Jones Inc,28383,141-446-54,cantumatthew@example.com,North Jared,Andorra
Pr7781,3492,Clark and Sons,39417,189-788-74,nrice@example.org,Schaeferburgh,Gibraltar
Pr7782,3535,Rodriguez-Powell,38843,368-328-65,mitchellbeth@example.com,Adamsburgh,Liberia
Pr7783,2800,Woods- Lewis and Wright,28900,149-590-34,marioriley@example.org,North Patrick,Lebanon
Pr7784,2802,Marsh- Frank and Lawrence,32517,521-445-37,chase98@example.net,Espinozaport,New Caledonia
Pr7785,626,Cabrera-Rivera,30441,582-137-90,gwhite@example.net,Port Rebeccabury,United States Minor Outlying Islands
Pr7786,1646,Cowan Ltd,23068,995-174-59,hrodriguez@example.net,South Joseph,Bahrain
Pr7787,4615,Wood- Smith and Flores,19344,124-186-48,joshuagutierrez@example.net,Port Matthew,Korea
Pr7788,1954,King PLC,35091,210-396-17,rachelhernandez@example.org,Matthewside,Monaco
Pr7789,4078,Baker-Hooper,19939,552-424-94,bradleycohen@example.org,North Alison,Myanmar
Pr7790,2019,Robertson-Harris,20574,964-772-45,julie89@example.com,Port Kelseymouth,Angola
Pr7791,1998,Mccann- Carey and Lewis,20341,632-643-87,jameswilson@example.com,Garciachester,Thailand
Pr7792,4419,Johnson-Perez,47686,640-701-90,marybarnett@example.com,Port Moniquechester,United States of America
Pr7793,2513,Garner Group,22551,326-812-74,lauradominguez@example.com,Kimberlyfort,Yemen
Pr7794,821,Rivera- Garcia and Hamilton,31980,852-583-43,imoore@example.org,South Ariel,New Caledonia
Pr7795,4247,Torres-Doyle,24543,326-522-42,lporter@example.com,East Melissamouth,Iceland
Pr7796,3350,Lee-Gardner,29076,824-143-15,stephen03@example.com,Jefferyfort,Saint Helena
Pr7797,763,Adams Inc,43657,892-385-84,gdavis@example.net,Maciaston,French Guiana
Pr7798,3786,Johnson Ltd,31104,389-421-22,brocklauren@example.org,North Pamview,American Samoa
Pr7799,1210,Keller-Booker,49714,147-333-64,joshuataylor@example.net,New Susanchester,Uganda
Pr7800,3737,Tate- Smith and Jones,35034,581-956-33,johnsonmindy@example.net,Barrettport,Barbados
Pr7801,3178,Harris Group,40061,663-537-41,mark77@example.com,Lake Marieside,Costa Rica
Pr7802,2525,Gordon- Crawford and Adams,31871,120-580-80,hernandezjohn@example.com,Mahoneyborough,Egypt
Pr7803,4019,Riley- Edwards and Hall,25576,588-724-53,dunndavid@example.com,Lake Gregory,Bahrain
Pr7804,2126,Mathis-Montgomery,32753,490-417-59,durhamjesse@example.org,Lake Frank,Myanmar
Pr7805,4040,Flores- Dickerson and Matthews,30966,821-758-68,sarah66@example.net,East Samuel,Sri Lanka
Pr7806,4134,Martin and Sons,24366,250-608-57,morgandebra@example.com,North Meganton,Mali
Pr7807,1198,Allen- Beck and Esparza,25909,987-330-15,michael62@example.com,South Jesse,Wallis and Futuna
Pr7808,3972,Coleman Inc,44858,288-360-97,carlabrennan@example.net,New Jackville,Tajikistan
Pr7809,732,Flores-Mitchell,28895,671-883-69,emorgan@example.net,West James,Uruguay
Pr7810,4609,Davis Inc,26120,525-201-31,rhondamoore@example.net,Davidborough,Zimbabwe
Pr7811,1622,Fox Inc,17623,993-493-94,vazquezdenise@example.net,Derekton,Antarctica (the territory South of 60 deg S)
Pr7812,1254,Parker PLC,20370,468-136-36,taylorpeter@example.org,Brewerburgh,Peru
Pr7813,3598,Carroll Group,26594,387-551-07,barbermichael@example.org,Port Mark,France
Pr7814,4227,Miller- Smith and Potter,25810,688-226-72,lorigallagher@example.org,Alexistown,Nigeria
Pr7815,781,Jones- Miller and Curtis,40490,494-076-72,schmidtisaac@example.net,Port Kendraview,Eritrea
Pr7816,2333,Williams and Sons,22189,501-492-87,jeffery11@example.com,North Anna,Czech Republic
Pr7817,3614,Blevins- Massey and Hernandez,22048,861-452-43,tclark@example.com,South Richard,Nepal
Pr7818,1800,Martinez- Miles and Willis,22007,432-592-36,jeffrey44@example.net,Jenkinsmouth,Azerbaijan
Pr7819,3683,Bryant LLC,41253,963-090-92,calvarado@example.org,North Josephtown,Jersey
Pr7820,3813,Moore Inc,43078,641-511-44,scain@example.net,Mercedesborough,Senegal
Pr7821,2028,Jackson- Brown and Richardson,15801,900-503-97,amitchell@example.net,South Rebecca,Kazakhstan
Pr7822,4037,Reid-Vasquez,40738,291-398-57,abigailgrant@example.net,Cherylmouth,Timor-Leste
Pr7823,1939,Garcia Group,47566,752-494-08,eanderson@example.org,Danielchester,Finland
Pr7824,1649,Molina- Short and Martin,28164,495-046-65,sarahyoder@example.net,Rodriguezberg,Honduras
Pr7825,3678,Shelton- Rodriguez and Mora,37705,426-308-13,bpeterson@example.com,Lake Victoria,Somalia
Pr7826,3276,Barajas Group,46690,366-131-88,scarter@example.com,Kylebury,Portugal
Pr7827,4173,Lawson-Schwartz,40590,313-798-41,rojasrenee@example.com,East Kaylee,American Samoa
Pr7828,3424,Morales Ltd,36872,492-071-84,jtownsend@example.net,Lake Nicoleville,Micronesia
Pr7829,3784,Rodriguez Inc,28757,700-818-69,hmccoy@example.org,Bretthaven,Angola
Pr7830,2857,Chandler-Morris,28826,876-584-48,orivera@example.org,South Shawn,Christmas Island
Pr7831,3459,Bailey- Ortiz and Lowe,38454,203-774-62,wgonzalez@example.com,Fuentesfurt,Eritrea
Pr7832,721,Roman- Mclaughlin and Thomas,15553,857-098-19,matthew40@example.com,New Carolyn,Latvia
Pr7833,1215,Ball PLC,46258,424-013-55,thompsonjoshua@example.net,South Brandon,Korea
Pr7834,2615,Adams Group,44641,549-342-91,jhiggins@example.org,Mariahton,Lao People's Democratic Republic
Pr7835,1447,Cooper-Mccarthy,20944,435-816-29,robert16@example.net,Jenniferbury,Malaysia
Pr7836,3347,Webb- Barber and Williams,39184,812-460-16,zimmermanscott@example.net,Kleinfurt,Peru
Pr7837,1273,Webb-Brown,41853,436-124-63,zdavidson@example.com,Port Heatherhaven,Wallis and Futuna
Pr7838,2837,Wiggins Ltd,46192,677-983-51,thomas25@example.net,Rickyberg,Saint Helena
Pr7839,2245,Turner Group,19566,538-400-42,nmoore@example.com,Gonzalezmouth,Guadeloupe
Pr7840,1713,Kelly-Ramos,31858,785-660-93,dayjennifer@example.net,Hartville,Maldives
Pr7841,1171,Anderson-Kelly,46543,242-482-97,cflores@example.net,Debratown,Malta
Pr7842,3289,Richards and Sons,40066,444-234-23,zjohnson@example.net,North Elizabethmouth,Guernsey
Pr7843,4430,Jennings-Levy,16867,586-892-96,maryyu@example.com,Heatherfurt,Guinea-Bissau
Pr7844,2454,Hooper- Warren and Duke,38549,449-430-56,imartinez@example.org,Joyburgh,Iran
Pr7845,908,Crawford Inc,26507,739-021-38,wyattjackson@example.org,Jamesburgh,Azerbaijan
Pr7846,2135,Molina- Hayes and Wallace,27394,690-249-98,phillipsgerald@example.org,New Denise,Romania
Pr7847,1455,Lewis LLC,25177,557-693-10,grayfrances@example.com,East Jeffreymouth,Syrian Arab Republic
Pr7848,1419,Williams-Smith,34434,452-401-36,michael07@example.com,West Darlene,Ukraine
Pr7849,3882,Day- Sanders and Turner,47366,866-106-98,bryanjoseph@example.net,Cardenasbury,French Southern Territories
Pr7850,3453,Berry-Wilson,22774,413-931-10,cody57@example.org,Russellmouth,San Marino
Pr7851,729,Williams-Farmer,20261,854-573-26,jamescollins@example.org,New Tiffany,Sierra Leone
Pr7852,3215,Brooks-Wilcox,29264,491-233-30,walter20@example.com,Royfurt,Gambia
Pr7853,4008,Pennington Group,37365,615-711-34,aroth@example.net,Johnchester,Bouvet Island (Bouvetoya)
Pr7854,1994,Adams- Smith and Hanson,44283,566-259-62,brooke67@example.org,Gregoryburgh,Yemen
Pr7855,637,King and Sons,23606,997-160-10,khale@example.com,Jenniferburgh,Uganda
Pr7856,4421,Garcia-Bullock,34374,956-009-73,vconner@example.com,West Charlotte,Uruguay
Pr7857,1531,Phillips- Fuller and Willis,45540,671-094-71,bayers@example.net,North Jennifer,Suriname
Pr7858,1479,Holt-Mendez,41974,862-527-30,stephanie74@example.net,South Lauraport,Uzbekistan
Pr7859,4720,Adams Inc,28207,691-664-67,shannon32@example.net,Vanessaton,Ukraine
Pr7860,999,Stanley-Frazier,47804,778-034-82,luislivingston@example.com,Emilymouth,Croatia
Pr7861,705,Salazar Ltd,32078,924-086-08,franklee@example.org,West Andrew,Niger
Pr7862,852,Reyes Group,30653,742-137-74,justinserrano@example.org,Thomaston,Guam
Pr7863,1929,Bishop Inc,28741,173-031-27,mariapope@example.net,West Robert,French Guiana
Pr7864,1233,Wheeler and Sons,20087,359-246-38,debbierosales@example.com,New Deborahborough,Martinique
Pr7865,2437,Chambers- Zhang and Payne,37559,578-036-19,nguyenadam@example.net,North Rachel,Austria
Pr7866,2793,Rivera-Smith,30808,554-603-40,carteremily@example.net,New Diane,France
Pr7867,1734,Cochran-Garcia,19567,632-402-65,jasongray@example.net,Justinchester,Eritrea
Pr7868,2432,Arnold-Thompson,36990,108-703-78,stephenshields@example.net,Ronaldburgh,Belgium
Pr7869,3391,Adams- Adams and Adams,40295,190-659-41,cgarcia@example.net,Nelsonmouth,New Caledonia
Pr7870,1787,Case-Acosta,37368,235-757-08,raymond29@example.com,Garrettstad,Azerbaijan
Pr7871,582,Patel PLC,45132,363-380-39,stuartjohnson@example.org,Klinechester,Estonia
Pr7872,2235,Johnson- Porter and Kent,34137,210-804-58,colinholloway@example.org,Jamieberg,United States Virgin Islands
Pr7873,4433,Walker-Smith,25480,231-109-85,janet14@example.com,Russellmouth,Panama
Pr7874,2546,Chapman- Hanson and Santana,21751,802-640-82,huertadeborah@example.com,East Wayne,Burundi
Pr7875,3472,Petty Inc,27711,120-490-20,zachary15@example.net,Lake Cathy,Haiti
Pr7876,993,Thomas- Smith and Williams,34810,649-351-85,smithtimothy@example.net,South Willieview,United States Virgin Islands
Pr7877,3167,Sanford- Chen and Santos,49776,923-294-79,psmith@example.net,Lindsayfort,Indonesia
Pr7878,4514,Krause- Scott and Morrow,15582,723-092-69,christophergarrison@example.com,Shannonland,Guyana
Pr7879,3148,Miller-Hunt,15912,666-481-58,hudsonamber@example.net,Johnsonview,Peru
Pr7880,2088,Hale Group,35061,769-389-56,josephsara@example.org,Johnsonton,Panama
Pr7881,4640,Smith- Garcia and Perkins,35120,482-152-98,edwardmcgrath@example.com,South Aaron,Bolivia
Pr7882,4493,Black-Ayala,29509,347-477-69,clarence64@example.com,Johnsonville,Italy
Pr7883,961,Harrison-Richards,17664,483-210-77,melendezjohn@example.org,Port Ashley,Colombia
Pr7884,3382,Wilson and Sons,37852,494-215-67,johnsonrandy@example.net,Trevinoside,British Indian Ocean Territory (Chagos Archipelago)
Pr7885,1265,Dominguez-Gates,33207,565-917-80,maxwellbrown@example.com,New Jamie,Estonia
Pr7886,2945,Dickson-Jones,23918,372-675-88,donnahernandez@example.net,Port Francisco,French Polynesia
Pr7887,797,Kelley-Mccormick,46679,193-792-05,kristen66@example.net,Jonesview,Uzbekistan
Pr7888,2266,Ingram- Rodriguez and Schmidt,31106,255-529-49,beckyday@example.net,New Chelseafurt,Macao
Pr7889,1181,Palmer- Long and Reyes,35776,771-733-53,odonnellderek@example.org,Danamouth,Serbia
Pr7890,1855,Walsh and Sons,35289,447-540-11,curtis72@example.org,Richardview,Malaysia
Pr7891,4717,Lewis-Miller,41424,588-434-71,hallandrew@example.net,Lesliemouth,Rwanda
Pr7892,1737,Watson-Nichols,36567,441-036-04,troywright@example.com,Brooksbury,Papua New Guinea
Pr7893,3523,Chang- Downs and Garcia,31546,539-702-19,austin58@example.org,West Tracy,Bahamas
Pr7894,1001,Zamora-Tran,26248,925-038-65,bfigueroa@example.net,West Carlos,Northern Mariana Islands
Pr7895,523,Griffin-Rivera,33711,526-998-17,tbuchanan@example.com,Odonnellberg,Svalbard & Jan Mayen Islands
Pr7896,4175,Tran-Jones,18123,335-042-41,vincent49@example.com,Gregorybury,Lebanon
Pr7897,849,Mullins- Ward and Hill,23035,882-656-47,blakeheather@example.net,Sarahmouth,Lebanon
Pr7898,4448,Bell- Tyler and Green,36524,129-344-07,dicksonpatrick@example.com,Vegatown,Grenada
Pr7899,1339,Martin LLC,29547,884-568-73,kleinemma@example.com,North Eddiestad,Dominican Republic
Pr7900,2513,Woodard-Figueroa,20509,903-631-10,lcoffey@example.net,New Kimberlyborough,Saint Lucia
Pr7901,2705,Olson-Phillips,36172,714-492-26,alan41@example.org,West Charlesfort,Lithuania
Pr7902,2140,Andrews- Taylor and Cummings,28917,384-653-28,fbrandt@example.org,West Robinton,France
Pr7903,3672,Vasquez and Sons,48504,606-030-20,etyler@example.net,Carrieville,Djibouti
Pr7904,849,Robinson- Oliver and Cain,23849,467-954-19,coreymiller@example.net,North Andrea,Lebanon
Pr7905,2899,Barnes Group,17860,785-858-09,harmonantonio@example.org,New Patricia,Switzerland
Pr7906,3140,Schmidt- Harrison and Miller,20161,742-821-38,jenkinsmelanie@example.org,Pricemouth,Djibouti
Pr7907,3193,Rojas and Sons,16132,273-991-33,ashleybell@example.org,Lake Lawrenceview,North Macedonia
Pr7908,3852,Soto-Schwartz,43016,944-996-80,garypierce@example.com,Richardsontown,French Southern Territories
Pr7909,4699,Herman-Simmons,28235,906-066-44,omoore@example.com,North Tyler,Kyrgyz Republic
Pr7910,4587,Cherry- Martin and Martinez,15531,484-444-96,xellis@example.org,Garyview,China
Pr7911,3040,Valenzuela-Adams,34282,750-300-07,girwin@example.org,Webbbury,Central African Republic
Pr7912,990,Johnson- Avila and Robinson,20157,219-291-26,mcdonaldkatie@example.org,Smithborough,Hungary
Pr7913,1394,Baker-Baker,16421,464-620-62,brittanygutierrez@example.net,East Jeffrey,Jamaica
Pr7914,4547,Benton-Bowers,43678,397-222-65,robertsanders@example.com,Wheelerfort,Belize
Pr7915,4284,Scott- Stafford and Flores,37256,111-461-06,joneskatelyn@example.com,Lake Paula,Albania
Pr7916,3292,Salazar- Anderson and Hawkins,18760,599-602-44,catherinele@example.com,Smithstad,Taiwan
Pr7917,2117,Lambert-Beck,43359,272-401-96,markdavis@example.com,Moodyfort,Malaysia
Pr7918,4265,Blake Group,45019,971-536-73,shawwilliam@example.net,Port Hannahport,Brunei Darussalam
Pr7919,2237,Wagner-Fowler,17589,463-352-31,chloe13@example.net,Shannonside,Singapore
Pr7920,2402,Gillespie- James and Stephenson,20863,990-856-56,lynchluis@example.com,Lake Brittneyburgh,Hong Kong
Pr7921,3314,Ewing- Carpenter and Garcia,22190,970-668-38,stephenking@example.com,East Rebeccachester,Malawi
Pr7922,540,Sloan- Butler and Warren,33025,999-223-66,fisherdavid@example.com,New Ambermouth,Dominica
Pr7923,1082,Santana LLC,18560,980-397-23,sandersrichard@example.com,North William,Guyana
Pr7924,2947,Hall- Hendricks and Hurst,42099,989-113-17,michaelcollins@example.net,Port Nicole,Timor-Leste
Pr7925,4589,Smith-Fowler,36233,723-508-00,kli@example.org,Stephenmouth,Bhutan
Pr7926,1236,Flores-Wright,33130,710-348-15,mary87@example.net,New Claudiaville,Saudi Arabia
Pr7927,2974,Gamble Group,34183,246-942-67,erica79@example.net,Mcgrathmouth,Gambia
Pr7928,2676,Jones-Mcdonald,45012,592-132-20,nicole26@example.org,East Ericport,Antigua and Barbuda
Pr7929,3309,Leach-Ward,40115,350-474-27,ohall@example.org,Newtonhaven,Sao Tome and Principe
Pr7930,1570,Duncan- Hebert and Stanley,32695,869-923-32,hinesgary@example.com,Port Teresa,Israel
Pr7931,1830,Owen and Sons,21085,642-882-14,durananthony@example.net,East Mary,Cook Islands
Pr7932,4408,Rivera Group,33612,411-180-23,thomasmargaret@example.com,East Jacquelineville,Cambodia
Pr7933,1928,Jackson- Mccullough and Morris,35789,200-081-45,tferguson@example.com,Port Jeffreyside,France
Pr7934,2832,Harding and Sons,35167,600-596-02,billy03@example.org,Mooreton,New Zealand
Pr7935,4524,Grant LLC,46862,950-664-50,joseph25@example.com,New Jasonland,Ghana
Pr7936,1213,Davis Ltd,25117,184-160-57,jensenphillip@example.com,West Travis,Lebanon
Pr7937,570,Shah Inc,26433,309-019-29,roberto33@example.com,Port Matthewside,Saint Martin
Pr7938,505,Benjamin LLC,32934,313-143-29,howellcynthia@example.com,Port Timothyfurt,Cook Islands
Pr7939,1200,Green Group,29400,183-887-98,cynthiamitchell@example.org,South Andrea,Syrian Arab Republic
Pr7940,2902,Santiago- Liu and Lee,25062,651-866-43,williamskarl@example.org,Jenniferhaven,Palau
Pr7941,2797,Mayo-Edwards,40204,599-710-09,kayla32@example.com,New Joshuaview,Western Sahara
Pr7942,3719,Mclean Group,32209,238-916-15,pamelarice@example.net,Elizabethfort,Venezuela
Pr7943,3890,Fox- Waller and Molina,41645,214-398-81,rodriguezjacqueline@example.com,Lake Sheriside,Yemen
Pr7944,1601,Whitehead- Murphy and Hurley,27962,874-974-15,andrea43@example.org,South Jeremybury,Saint Helena
Pr7945,2506,Martin Group,27182,990-778-26,judygonzales@example.org,Millerbury,South Africa
Pr7946,4626,Gomez- Sullivan and George,40087,634-231-71,stevenrivera@example.org,North Rebekah,Romania
Pr7947,4133,Martinez-Ho,31490,500-050-54,wchan@example.org,West Karaton,Timor-Leste
Pr7948,2896,Williams-Mendoza,48055,827-594-52,lnewman@example.net,Port Brittany,Pakistan
Pr7949,4404,Anderson- Fuentes and Mccoy,43473,268-082-29,charleswilliams@example.net,North Sharonland,Jamaica
Pr7950,4121,Green-Cantrell,30088,545-781-14,fnorton@example.org,Mollyfort,Maldives
Pr7951,3486,Klein- Fisher and Hawkins,47269,738-089-72,jeffrey89@example.net,Karlport,Thailand
Pr7952,3476,Anderson-Day,48516,647-085-46,iromero@example.net,Jeremyside,Niue
Pr7953,4479,Curry-Hurley,37885,970-317-70,zacharyirwin@example.org,Hernandeztown,Chad
Pr7954,2467,Johnston-White,48233,362-875-82,rachael44@example.net,East Ashleemouth,Saint Vincent and the Grenadines
Pr7955,621,Fisher-Pham,19055,659-911-70,margaretburns@example.org,Lake Jacob,Central African Republic
Pr7956,1667,Moreno-Rice,31721,105-359-75,katherinesmith@example.net,Kristinaview,New Caledonia
Pr7957,897,Joyce-Mcdonald,22911,529-893-75,kevin39@example.org,Greenhaven,Burundi
Pr7958,984,Conner-Morgan,38866,106-509-53,ashley31@example.org,West Ashleemouth,Micronesia
Pr7959,1804,Davis LLC,18624,205-007-93,christina60@example.com,North Davidfurt,Cambodia
Pr7960,3096,Wade PLC,45217,809-209-53,cooktony@example.org,Jenniferhaven,Faroe Islands
Pr7961,2656,Ward Ltd,49220,621-536-62,david35@example.net,Williammouth,Djibouti
Pr7962,3553,Hurley-Thompson,15576,805-844-38,phillip90@example.org,Ericaborough,Liechtenstein
Pr7963,2063,Wiley- Li and Garcia,44901,279-662-04,amandarichards@example.org,Phillipsport,Faroe Islands
Pr7964,3543,Griffin-Brown,36945,902-202-28,larsonjoe@example.org,Lake Traciville,Montserrat
Pr7965,1559,Chaney- Warner and Maldonado,38299,432-707-49,adameverett@example.com,South Sarah,Cayman Islands
Pr7966,2277,Delgado-Berry,48487,109-306-60,joseph69@example.net,Sydneymouth,Guam
Pr7967,2151,Davis Inc,46076,387-038-40,felicia47@example.org,Loganmouth,Myanmar
Pr7968,3210,Snyder- Harper and Lee,40702,537-213-59,kimberly94@example.com,Shannonhaven,Cape Verde
Pr7969,1342,Wright-Edwards,41935,320-699-73,shermannatalie@example.com,South Kelly,Antigua and Barbuda
Pr7970,2019,Smith Inc,34278,595-604-71,tjones@example.com,Buckfurt,Qatar
Pr7971,1671,Harrison Inc,21643,334-929-38,patricia04@example.com,South Valerietown,Turkmenistan
Pr7972,1964,Hayes-Harrison,21623,906-600-73,jonesadam@example.org,Marioton,Bouvet Island (Bouvetoya)
Pr7973,4143,Andrews PLC,49275,172-064-40,steven41@example.org,Port Kimberly,Czech Republic
Pr7974,1741,Johnson- Smith and Savage,36303,776-228-60,bpotter@example.net,Rowestad,Bhutan
Pr7975,3191,Davis PLC,15904,147-027-05,johnsonrebecca@example.com,Port Debra,Anguilla
Pr7976,3624,Mann- Hammond and Dean,43039,881-357-22,tiffanydavidson@example.com,Phillipschester,El Salvador
Pr7977,2616,Thomas-Peck,22160,280-049-44,carolynbradley@example.net,Ramseytown,Bulgaria
Pr7978,4208,Briggs- Jones and Cohen,44169,418-036-38,jennifer70@example.org,Lake Amber,Chile
Pr7979,1031,Thompson-Hodge,33321,379-441-60,munozjanet@example.org,South Zacharyburgh,Croatia
Pr7980,3751,Castillo- Ortiz and Archer,38169,487-790-20,leedonald@example.com,Port Crystalchester,Liberia
Pr7981,3414,Morrison- Mills and Patterson,43123,312-718-34,juan45@example.com,West Michael,Estonia
Pr7982,2801,Juarez Inc,44255,522-967-50,joshuawalton@example.com,Ambermouth,Niue
Pr7983,1127,Valdez- Ford and Smith,39598,434-967-13,zwilliams@example.com,North Nancymouth,Lao People's Democratic Republic
Pr7984,2694,Roberts- Cox and Roberts,18779,820-842-18,trujilloholly@example.org,North Kimberlyton,Luxembourg
Pr7985,917,Garrett PLC,39538,990-976-26,warddaniel@example.org,North Jennifer,Sao Tome and Principe
Pr7986,3052,Moody- Garcia and Douglas,26602,786-697-35,brian35@example.net,South Chelsea,Tanzania
Pr7987,3624,Greene- Brown and Stevenson,17035,773-586-12,monicagarza@example.net,Davidfurt,Cape Verde
Pr7988,3447,Bass- Pena and Shaffer,16171,655-786-13,donnaclark@example.com,West Lauraview,British Indian Ocean Territory (Chagos Archipelago)
Pr7989,4148,Henderson-Webster,19073,115-836-62,fieldshannah@example.net,Youngborough,British Indian Ocean Territory (Chagos Archipelago)
Pr7990,1714,Sanchez- Johnson and Eaton,38778,626-128-42,ashleyhamilton@example.org,New Jennifer,Bangladesh
Pr7991,1529,Stanley-Baker,44278,386-759-34,doris55@example.com,Elijahfort,Antarctica (the territory South of 60 deg S)
Pr7992,1735,Jimenez- Allen and Johnson,32197,626-591-39,aramirez@example.net,Alexanderburgh,Fiji
Pr7993,1219,Reyes-Brown,48322,735-251-01,ronaldle@example.net,West Charles,Sri Lanka
Pr7994,3925,Moore LLC,40959,900-346-01,jgarner@example.org,Timothyview,Bahamas
Pr7995,4454,Moody-Russell,28912,274-647-63,steven83@example.com,Allenside,Chad
Pr7996,4725,Mendoza Ltd,40892,773-989-13,zimmermancarrie@example.net,Michellefurt,Gabon
Pr7997,2896,Leblanc- Wright and Ashley,29583,680-699-91,xlee@example.com,Arielmouth,Brazil
Pr7998,4266,Olson PLC,30987,979-118-73,stewartrichard@example.net,New Melanie,Uzbekistan
Pr7999,2559,Bradshaw- Holmes and Higgins,34010,535-236-73,zbradford@example.net,West Jessica,Bermuda
Pr8000,1422,Wilson-Thomas,43254,967-500-99,erin53@example.net,Salazarstad,Guadeloupe
Pr8001,840,Smith- Castaneda and Ingram,17516,391-933-80,jennafoster@example.com,Lake Nancyville,Pitcairn Islands
Pr8002,705,Choi-Peterson,34722,778-682-21,vbarker@example.net,Lake Isabellaton,Pitcairn Islands
Pr8003,996,Tucker PLC,34267,249-382-38,bpittman@example.com,New James,Marshall Islands
Pr8004,4459,Rush- Arnold and Anderson,49461,851-067-85,barkeredward@example.com,East Kellybury,Turkmenistan
Pr8005,2491,Patterson Ltd,35659,671-839-23,bryangarrett@example.com,West Amber,Namibia
Pr8006,1985,Herrera- Jones and Johnson,19111,918-296-18,anneanderson@example.com,Morrisport,Guam
Pr8007,4171,Davis Inc,20337,795-649-98,brownbenjamin@example.com,Peterton,Nauru
Pr8008,1198,Valdez-Holmes,31772,484-740-96,wilsonmark@example.org,Port Lindseyfort,Bouvet Island (Bouvetoya)
Pr8009,4245,Carter Ltd,27665,983-618-37,graywhitney@example.org,East Victoria,Kuwait
Pr8010,2866,Andrews-Gibson,32262,638-083-93,zgeorge@example.net,West Kimberly,Tajikistan
Pr8011,4704,Stevens Ltd,32515,319-608-88,ericmartinez@example.net,Richardshire,Tajikistan
Pr8012,3231,Kaiser and Sons,19278,955-873-85,fspears@example.net,Acostatown,Denmark
Pr8013,4662,Moore-Anderson,16216,291-424-67,sullivansteven@example.com,Lake Sherriborough,Bahamas
Pr8014,1804,Salazar Inc,21741,827-751-35,graykatherine@example.net,Malonetown,Cameroon
Pr8015,4130,Graham-Reed,32249,575-984-04,laura43@example.org,Haileyville,Cuba
Pr8016,4097,Black and Sons,30296,529-441-27,lisa99@example.net,Kevinton,Peru
Pr8017,527,Simpson- Phillips and Marshall,16551,452-860-20,robert59@example.org,Freemanville,Saudi Arabia
Pr8018,2591,Mcguire and Sons,24452,358-512-75,lesliefischer@example.net,Catherineport,Tunisia
Pr8019,4659,Byrd-Leblanc,34941,426-059-03,chavezmichael@example.com,Candicestad,Oman
Pr8020,3052,Diaz- Jones and Wright,15807,519-264-25,floydjennifer@example.org,Mitchellburgh,Heard Island and McDonald Islands
Pr8021,1483,Figueroa-Moran,27760,548-092-47,marcus86@example.com,Lake Cole,Belize
Pr8022,2224,Rosario- Bradley and Kelly,41517,350-779-15,eporter@example.com,Tarastad,Montserrat
Pr8023,987,Sanders-Collins,28617,710-191-48,rubiokristen@example.net,Lake Steven,Norway
Pr8024,2751,Brown LLC,23580,480-522-65,terryandrew@example.org,North Kimberlybury,Nauru
Pr8025,832,Leonard-Atkins,46974,803-505-65,wrightkelsey@example.net,Jimport,Nigeria
Pr8026,2108,Bishop Inc,38630,454-038-51,justinvaughn@example.org,Brentmouth,Gibraltar
Pr8027,1810,Andrews Group,23818,311-024-30,parksjoseph@example.org,Port Frank,Malawi
Pr8028,1921,Hunter Ltd,46838,417-178-31,gregorylopez@example.org,Victoriaport,Malta
Pr8029,3695,Hunt and Sons,39482,770-577-62,gkerr@example.org,Lake Alyssa,Central African Republic
Pr8030,1182,Turner Inc,45723,519-543-68,angelahoffman@example.net,Romerofurt,New Caledonia
Pr8031,979,Lopez Group,31505,155-747-13,tina67@example.net,Mooreside,Antarctica (the territory South of 60 deg S)
Pr8032,1863,Evans- Gomez and Collins,44720,146-221-49,wpowell@example.net,Stephenburgh,British Virgin Islands
Pr8033,677,Brown-Russell,33661,858-551-11,garciamargaret@example.com,Sweeneystad,Tunisia
Pr8034,4125,Strickland Group,43266,229-483-08,elizabethvargas@example.com,Elliottmouth,Timor-Leste
Pr8035,3432,Hall and Sons,46337,174-115-34,cruzdominic@example.com,Rogersport,Sweden
Pr8036,4271,Benton- Ballard and Lynch,48414,419-390-43,bgonzales@example.com,Bensonside,Anguilla
Pr8037,829,Davis-Morris,21828,392-919-72,josephhudson@example.org,Oconnellborough,Indonesia
Pr8038,1848,Hebert PLC,48035,237-600-04,osmith@example.org,North Stephen,Saudi Arabia
Pr8039,1829,Norton- Cummings and Harper,39966,715-374-74,danasmith@example.com,Mitchellfurt,Tokelau
Pr8040,3505,Cook LLC,18207,262-144-16,frankrenee@example.org,East Karenchester,Greenland
Pr8041,4547,Rice and Sons,40566,876-907-05,xstanley@example.com,East Richard,Mexico
Pr8042,1700,Williams Inc,36189,473-242-63,teresa93@example.org,Karenview,Sweden
Pr8043,2896,Howell Group,26015,841-729-84,danielhansen@example.org,Patrickmouth,Norway
Pr8044,4040,Smith Group,40946,472-142-86,lindsay35@example.com,Port Craigberg,Panama
Pr8045,1047,Carrillo Inc,42140,146-583-52,dnash@example.com,East David,Samoa
Pr8046,3664,Estrada and Sons,21635,629-840-38,henryreed@example.org,South Mathewtown,Cocos (Keeling) Islands
Pr8047,4513,Nelson Ltd,16723,279-492-08,raymond70@example.net,Martineztown,Dominica
Pr8048,2379,Smith- Williams and Mendoza,25651,169-091-12,robertsalinas@example.com,Marktown,Portugal
Pr8049,3833,Phillips PLC,27156,458-512-60,andrewking@example.com,North Alexis,Iceland
Pr8050,3927,Singh-Robinson,42683,885-339-08,teresa00@example.org,Howardchester,Tajikistan
Pr8051,1795,Wheeler- Nelson and Roberts,42604,978-664-13,normanstephanie@example.com,Lake Johnbury,Gabon
Pr8052,2312,Stewart LLC,40913,323-272-58,tiffany65@example.com,South Belinda,Czech Republic
Pr8053,4322,Hodge- Rojas and Wilson,37900,895-653-21,cynthianichols@example.com,Landrystad,Lebanon
Pr8054,2541,Galloway-Acosta,37008,537-157-63,michaelmoore@example.org,Port Melanieport,Canada
Pr8055,4590,Johnson Inc,48998,282-828-13,lee15@example.com,Port Tylerland,Egypt
Pr8056,790,Sandoval PLC,40358,255-508-81,david09@example.com,Lake Kevintown,Turks and Caicos Islands
Pr8057,2539,Martin-Brown,43563,930-797-03,casejennifer@example.com,South Christopherland,Bolivia
Pr8058,1282,Lee- King and Harrison,26684,650-258-01,roblesrhonda@example.org,Odonnellhaven,Haiti
Pr8059,2999,Martinez PLC,17666,711-339-65,ymerritt@example.net,Larsonfurt,Pitcairn Islands
Pr8060,3697,Phillips-Brennan,39725,108-080-22,blairryan@example.com,Brendanfort,Congo
Pr8061,1121,Knapp PLC,48781,139-241-21,emily64@example.org,Lake Jennifer,Saint Kitts and Nevis
Pr8062,1427,Kennedy-Lawrence,27010,948-241-96,leonnicole@example.com,North Elizabethfurt,Syrian Arab Republic
Pr8063,3937,Berg-Cox,35710,277-605-72,brownnorman@example.org,East Chelseamouth,Pakistan
Pr8064,2262,Griffin Ltd,32016,869-291-07,kelliferguson@example.org,Alexanderchester,Oman
Pr8065,1826,Ross- Bradley and Williams,15989,489-215-10,cwilliams@example.org,Robinsonview,Kenya
Pr8066,4219,Morris- Perez and Strickland,42557,719-044-37,burkealexander@example.org,North Williamstad,Lao People's Democratic Republic
Pr8067,4485,Curtis Ltd,44985,559-020-73,jennifer22@example.net,West Ericberg,India
Pr8068,3769,Williams- Flores and Randolph,22826,643-389-38,hbenton@example.org,North Nathan,Bouvet Island (Bouvetoya)
Pr8069,4463,Sims LLC,45550,527-004-21,nbartlett@example.net,North Alanfort,Tuvalu
Pr8070,3411,Warren-Hernandez,31223,755-434-12,dhall@example.com,South Savannah,San Marino
Pr8071,2967,Garcia- Duncan and Powell,16702,307-277-67,joshuakim@example.net,Jeannefurt,Guernsey
Pr8072,4639,Pena PLC,44005,744-433-89,whitetommy@example.com,Danaside,Cuba
Pr8073,4129,Spencer- Murillo and Ramirez,20271,704-718-28,jonathanjohnson@example.net,Lopeztown,Cyprus
Pr8074,3600,Randall-Hill,30645,499-851-33,robbinskaren@example.org,Brettton,Canada
Pr8075,3463,Reese- Blankenship and Cunningham,28055,448-423-62,brandi67@example.com,Johnsonton,Thailand
Pr8076,1241,Henderson Group,24739,984-121-45,brendajames@example.net,East Tracy,Cape Verde
Pr8077,4360,Gonzalez- Williams and Holmes,40987,777-587-21,douglasheather@example.net,Jillstad,Martinique
Pr8078,997,Maddox-Garner,48031,550-310-77,elizabethferguson@example.org,West Kristinview,Angola
Pr8079,1665,Ibarra-Young,46517,156-639-40,dominiqueclark@example.com,Jerryland,Christmas Island
Pr8080,3635,Johnson-Price,43130,882-780-08,rodriguezsummer@example.org,South Rodneyland,Mozambique
Pr8081,1058,King- Ali and King,18341,295-922-87,rbennett@example.com,Mandybury,Afghanistan
Pr8082,1365,Dawson Inc,39048,293-164-45,xrobinson@example.net,Davidstad,Tokelau
Pr8083,4283,Rose-Peterson,30744,967-938-07,hendrixgary@example.com,Johnsonbury,Switzerland
Pr8084,4601,Kelly and Sons,33177,949-369-93,donovanjason@example.net,South Angela,Mali
Pr8085,4614,Buchanan- Key and Cline,27824,511-485-21,gomezdennis@example.org,Valentinefort,Bolivia
Pr8086,2019,Brown-Burnett,41375,292-548-90,rsantos@example.org,Christopherborough,Kuwait
Pr8087,3424,Dixon Inc,16516,358-236-91,cspencer@example.org,New Randallfort,Guatemala
Pr8088,2191,Peters LLC,41118,778-273-41,uclark@example.com,East Theresa,Latvia
Pr8089,2957,Coleman-Collins,40506,998-966-00,ekemp@example.com,Lopezton,Cocos (Keeling) Islands
Pr8090,1985,Crawford-Ballard,17745,581-715-82,cummingsjulia@example.net,East Jamesville,Korea
Pr8091,3995,Black LLC,18571,860-119-89,irios@example.com,East Darrenberg,Antarctica (the territory South of 60 deg S)
Pr8092,4218,Hernandez PLC,15506,135-727-87,awalton@example.net,Glenbury,Guam
Pr8093,1274,Acosta- Smith and Weber,38193,795-125-41,whiteevan@example.net,Levinehaven,Western Sahara
Pr8094,4017,Chavez and Sons,46733,220-046-39,brandonleon@example.org,Kingtown,Angola
Pr8095,2387,Reyes and Sons,44896,963-403-89,curtisrodriguez@example.net,South Ericashire,Brunei Darussalam
Pr8096,3370,Schneider-Horton,24866,906-720-80,robynking@example.com,Port Joseph,Seychelles
Pr8097,3112,Brown and Sons,26823,332-319-76,wunderwood@example.org,North Robertview,Uganda
Pr8098,3357,Soto-Benitez,30612,544-169-84,tlara@example.net,Lewisbury,Togo
Pr8099,3249,Rojas Group,40018,995-555-40,chasethomas@example.org,Jonesland,North Macedonia
Pr8100,4396,Walker-Oliver,36521,656-997-47,jackgonzales@example.com,Dawnfurt,Heard Island and McDonald Islands
Pr8101,4497,Jenkins-Martin,30772,624-844-23,tduffy@example.net,Karaside,Benin
Pr8102,4098,Kirk Ltd,34005,594-690-08,cynthia37@example.com,New Karenchester,Spain
Pr8103,3703,Murphy PLC,36581,273-007-38,webstersusan@example.com,Ryanview,Lao People's Democratic Republic
Pr8104,2422,Martinez and Sons,29762,407-279-81,hollowayvalerie@example.net,Rodriguezchester,Lebanon
Pr8105,4087,Peterson-Barnes,22210,768-618-39,emma35@example.org,East Rebeccashire,Montenegro
Pr8106,1250,Gallegos- Brooks and Miles,18270,994-254-29,jsmith@example.net,South James,Papua New Guinea
Pr8107,2744,Garcia-Gonzalez,17714,216-922-73,chad72@example.net,New Amandaland,Jersey
Pr8108,845,Rogers- Grimes and Williams,16641,696-359-58,ericnelson@example.net,West Regina,San Marino
Pr8109,3400,Meyer-Alexander,47779,848-882-15,yward@example.net,Colonchester,Afghanistan
Pr8110,4652,Mcdonald- Smith and Riley,17842,460-287-20,tylermoore@example.org,Port Erinton,Nigeria
Pr8111,945,Johnson Inc,18628,611-540-60,donaldmason@example.org,Vincentburgh,Martinique
Pr8112,2577,Scott-Simon,44291,658-788-67,nicole66@example.net,South Christopher,Lebanon
Pr8113,3888,Mcclure LLC,27786,599-829-11,glloyd@example.org,Ortizburgh,Jersey
Pr8114,2121,Lee-Martin,35196,851-620-04,patrick70@example.com,South Jonathan,Venezuela
Pr8115,2459,Anderson-Ford,29873,557-701-43,anthonypena@example.org,South Eric,Seychelles
Pr8116,2317,Stewart- Paul and Lewis,47351,864-976-99,teresadickson@example.com,Courtneyton,Tonga
Pr8117,2629,Hensley Inc,39460,187-459-75,briancole@example.org,West Christine,Mauritius
Pr8118,3477,Miranda-Campbell,46326,631-744-49,wilsonveronica@example.org,West Taylor,Honduras
Pr8119,1699,Cantrell LLC,39100,802-696-58,kimberly73@example.org,North Davidville,Bulgaria
Pr8120,3901,Collins Group,34626,848-320-21,helenchoi@example.net,Hughesfurt,Lesotho
Pr8121,4601,Jones-Sawyer,34316,424-198-92,karisolis@example.net,West Anthony,Uzbekistan
Pr8122,3635,Larson-Torres,33360,612-376-15,audreyhayes@example.net,West Julietown,Poland
Pr8123,964,Perry-Stewart,46832,580-120-19,suttonchristina@example.com,Nelsonfurt,Lithuania
Pr8124,3249,Anderson-Bryant,48834,705-660-32,vvaldez@example.net,Whiteborough,Swaziland
Pr8125,1366,Rocha- Evans and Bates,41046,622-009-94,christopherdoyle@example.net,East Patriciabury,Dominica
Pr8126,1784,Cooper-Brock,48728,726-248-62,suarezhannah@example.org,Mackenzieland,Tuvalu
Pr8127,4661,Maddox-Rogers,46547,942-140-85,hannahacosta@example.com,Carriefort,Moldova
Pr8128,3181,Nguyen Inc,30010,167-939-83,tylerparker@example.org,East Amytown,Estonia
Pr8129,1157,Chen- Benson and Morgan,21949,426-817-03,fisherpamela@example.com,Port Victoria,Algeria
Pr8130,3081,James- Hall and Barnes,47528,499-457-60,iramirez@example.org,New Jenniferland,Wallis and Futuna
Pr8131,908,Davis Inc,42499,778-029-79,donaldnelson@example.com,Reynoldsport,Martinique
Pr8132,3990,Leonard Ltd,26341,384-364-71,holly75@example.net,Rachelstad,Ghana
Pr8133,2387,Smith PLC,35826,642-802-09,gwillis@example.com,New Paul,Honduras
Pr8134,697,Kelley- Crosby and Mccullough,44157,192-701-33,karagilmore@example.org,South Michaelmouth,Congo
Pr8135,575,Collins-Johnson,38017,100-982-09,tamara69@example.com,Annfort,Saint Vincent and the Grenadines
Pr8136,4239,Powell-Ramirez,30694,956-554-16,anthony07@example.com,North Adam,Belize
Pr8137,1166,Huynh LLC,41196,797-914-91,caleb87@example.org,Garrisonborough,Wallis and Futuna
Pr8138,3416,Chen- Golden and Morris,24070,480-350-83,casejeremy@example.com,Aaronview,Slovakia (Slovak Republic)
Pr8139,2632,Lin-Welch,23272,637-139-82,gabriel94@example.net,West Johnborough,Guam
Pr8140,842,Taylor and Sons,17226,914-322-39,millerkaren@example.org,New Christopher,Congo
Pr8141,4592,Burton LLC,48265,365-980-36,denniswilliam@example.com,Aaronfort,Iran
Pr8142,1885,Wyatt- Robertson and Archer,16244,577-772-22,ibrewer@example.com,South Melissaside,Panama
Pr8143,2163,Cohen Group,23277,268-964-70,reynoldserin@example.org,West Juan,Romania
Pr8144,3481,Kelly-Jimenez,45546,738-837-43,moorekaren@example.net,East Crystalfurt,Palestinian Territory
Pr8145,3423,Rowe- Freeman and Jones,21499,867-282-46,curryjeff@example.net,East Curtisberg,North Macedonia
Pr8146,4041,Smith Ltd,46814,567-536-12,stephanie10@example.org,Port Jasonmouth,Hungary
Pr8147,2997,Carey-Benitez,34807,718-709-66,shirleysingh@example.net,Jeremytown,Saint Vincent and the Grenadines
Pr8148,2875,Rasmussen- Campbell and Morgan,34529,975-570-48,simmonskelly@example.org,Lorettaberg,Macao
Pr8149,975,Weaver PLC,22736,983-997-88,gary71@example.org,Lake David,Morocco
Pr8150,4038,Berger-Patterson,43148,174-780-09,christopherfoster@example.com,Williamton,Botswana
Pr8151,2890,Lee Inc,40981,599-735-90,nancybrooks@example.net,Yolandafort,Slovakia (Slovak Republic)
Pr8152,1750,Smith- Bishop and Edwards,37268,493-365-34,thomasdana@example.net,Lake Aliciaside,Burundi
Pr8153,4050,Larson Ltd,18203,501-233-69,ohuang@example.org,Brownmouth,Vietnam
Pr8154,4166,Hayes- Hall and Hudson,19062,419-102-85,ryanhawkins@example.net,North Destinyfort,Wallis and Futuna
Pr8155,1904,Hill-Zhang,21263,361-915-16,lydiabailey@example.com,Port Jenny,China
Pr8156,4076,Snow and Sons,36918,232-413-79,roger39@example.net,Washingtonburgh,Tunisia
Pr8157,3357,Jenkins-Lopez,26238,106-472-83,phartman@example.com,North Elizabethstad,French Southern Territories
Pr8158,3784,Lee LLC,19418,209-317-27,jeremywilcox@example.org,Whiteside,French Southern Territories
Pr8159,3033,Villanueva LLC,32187,214-021-92,nmccarthy@example.net,New Kristenberg,Cambodia
Pr8160,2148,Mccarthy LLC,43615,747-875-01,mharrison@example.net,Port Brianna,Luxembourg
Pr8161,957,Robles-Morgan,25284,487-219-61,lisabrown@example.com,Bishopview,Djibouti
Pr8162,2176,Perez-Cruz,40549,769-162-36,smithrandy@example.net,Williamsview,Spain
Pr8163,1051,Willis- Dunn and Perez,27642,406-767-89,chenleah@example.org,Snyderberg,Venezuela
Pr8164,2893,Thompson Group,19662,192-835-45,hannah21@example.com,East Christopherbury,Turks and Caicos Islands
Pr8165,897,Blanchard- Murphy and Woods,36823,161-744-57,phernandez@example.net,East Larry,Egypt
Pr8166,4045,Johnson- Carr and Park,43910,702-815-44,shelly58@example.org,Lyonsburgh,United States Virgin Islands
Pr8167,2970,Hill- Hansen and Irwin,49107,196-590-50,leejuan@example.com,North Christopherhaven,South Africa
Pr8168,1457,Smith-Wilson,37142,825-036-22,rmckenzie@example.com,West Rebecca,Suriname
Pr8169,3544,Peck- Guerrero and Brown,24171,739-256-28,amandagriffin@example.net,Cherylfurt,Ukraine
Pr8170,3415,Johnson PLC,48451,920-090-28,armstrongjesse@example.org,East Krista,Belarus
Pr8171,798,Rhodes Group,22600,269-506-61,joseph27@example.net,West Matthew,Barbados
Pr8172,885,Guerrero LLC,23416,205-373-72,amcclure@example.com,Port Andrewport,Czech Republic
Pr8173,2828,Campbell-Koch,36628,141-652-88,deborah21@example.com,Danielview,Norway
Pr8174,2430,Harrison Ltd,42175,820-617-96,pchapman@example.org,Port Amber,French Southern Territories
Pr8175,2235,Salazar-White,15888,615-350-68,pamelamiranda@example.net,Lake Thomasberg,Algeria
Pr8176,4109,Morris- Green and Hernandez,16042,506-300-42,joann42@example.org,West Keithshire,Lao People's Democratic Republic
Pr8177,2386,Perkins- Robinson and Sanchez,19852,573-384-48,allendean@example.net,Andrewfurt,Algeria
Pr8178,1254,Turner-Romero,22937,626-837-91,antonio92@example.com,Duaneburgh,Palestinian Territory
Pr8179,3942,Friedman PLC,43585,642-431-08,pcastillo@example.com,Port Dianemouth,Saint Barthelemy
Pr8180,3965,Davila Group,36402,375-959-91,tommy06@example.org,East Joelville,Swaziland
Pr8181,4293,Mccoy-Ellis,33032,330-340-95,stephanie46@example.org,Davisbury,Djibouti
Pr8182,4151,Reilly-Gentry,22793,539-798-42,briangarrett@example.org,Thomaston,Guinea
Pr8183,3989,Horton Inc,44166,987-296-84,melissa23@example.com,Reginaldton,Central African Republic
Pr8184,1101,Banks-Campbell,19027,943-773-92,jwise@example.net,Dianebury,Paraguay
Pr8185,4007,Kirk Ltd,40082,882-827-46,lrobertson@example.org,East Michaelhaven,Mozambique
Pr8186,3036,Williams-Hale,45880,648-004-13,kristina32@example.org,East Edward,Colombia
Pr8187,4448,Austin-Glass,20901,709-868-96,sanchezdoris@example.org,Bryanside,Iraq
Pr8188,4101,Andrade and Sons,32248,954-932-09,julieblevins@example.com,Kelleytown,Togo
Pr8189,1675,Mccormick-Matthews,39008,592-381-37,justin69@example.net,Lake Donna,Croatia
Pr8190,1782,Burton Inc,21153,303-211-26,stephanie63@example.org,New Philipshire,Kiribati
Pr8191,1795,Williams PLC,16519,120-732-44,angelsmith@example.net,Watsonville,Uruguay
Pr8192,3648,Rogers Inc,18628,147-223-44,crystalblair@example.com,Mayerside,Uruguay
Pr8193,2561,Meyer PLC,38158,712-580-32,ray94@example.org,North James,New Zealand
Pr8194,836,Bonilla-Morton,35726,450-689-01,jeanne34@example.org,Port Patrickshire,India
Pr8195,702,Ramirez- Melton and Fields,28431,934-698-84,edwinbrandt@example.net,Jonathanton,Taiwan
Pr8196,3257,Hardin-Jones,46526,167-612-74,reyesanthony@example.net,South Elizabeth,Angola
Pr8197,1537,Copeland- Roberts and Robinson,26548,798-428-22,pamela10@example.net,Port Sarah,Libyan Arab Jamahiriya
Pr8198,2111,Lewis- Harmon and Brown,21371,827-202-27,breanna00@example.com,Port Keithbury,Northern Mariana Islands
Pr8199,1507,Russell PLC,20366,600-484-23,nicole23@example.org,Robertsberg,Western Sahara
Pr8200,2951,Brown-Fischer,42065,452-934-93,sara46@example.net,Johnfurt,Finland
Pr8201,2058,Coleman-Walker,38250,583-878-51,teresafernandez@example.net,East Tammyside,Angola
Pr8202,1170,Brown-Castro,28963,370-712-12,sheparderin@example.org,Edwardberg,Ecuador
Pr8203,4361,Phillips-Weaver,46546,539-156-42,dwhitehead@example.net,Johnland,Monaco
Pr8204,781,Burnett Group,33851,106-586-29,williamsdanny@example.org,West Marcus,Martinique
Pr8205,4745,Wilson-Foster,42334,116-057-43,ashaffer@example.net,Forbesmouth,Czech Republic
Pr8206,2708,Kramer Group,47023,390-936-37,timothy25@example.com,Lopezchester,Philippines
Pr8207,4094,Conley- Christensen and Brooks,49181,370-944-02,madison70@example.net,West Yeseniaside,Sao Tome and Principe
Pr8208,553,Collins PLC,26766,654-543-25,clinejennifer@example.org,New Andrew,Congo
Pr8209,783,Wu-Knight,18917,238-726-22,ambersmith@example.net,Joshuahaven,Norfolk Island
Pr8210,2339,Rodriguez-Mcclure,45838,122-993-84,akramer@example.net,Karinaland,Niue
Pr8211,1716,Sanchez LLC,22609,419-466-08,christopher33@example.org,West Dennis,Guyana
Pr8212,849,Sullivan- White and Smith,33222,894-677-48,josephtyler@example.com,New Melissa,Belize
Pr8213,1766,Murray-Rogers,28710,260-799-66,wthornton@example.org,Smithhaven,Saudi Arabia
Pr8214,872,Maxwell- Vazquez and Buchanan,47295,424-835-19,sherry44@example.net,Kristenfort,Guadeloupe
Pr8215,3453,Rose- Mitchell and Myers,34039,404-855-25,nbrown@example.org,North Jacobmouth,Tokelau
Pr8216,542,Walker- Myers and Wilkins,47389,961-236-06,carlossullivan@example.net,Port Jacobfort,Nauru
Pr8217,1250,Forbes-King,46923,117-686-56,michaelwalker@example.org,Hudsonview,France
Pr8218,3659,Reyes Group,32769,425-958-76,icannon@example.com,New Ricky,Thailand
Pr8219,3519,Henderson LLC,41794,749-517-21,joycechavez@example.com,East Jeanette,Bermuda
Pr8220,1768,Carlson Group,16463,406-517-54,annascott@example.net,Hartland,Barbados
Pr8221,4716,Gomez- Clark and Copeland,43091,228-567-78,johnwilliamson@example.net,Thomasfurt,Cambodia
Pr8222,683,Phillips- Jones and Richards,39089,507-049-53,moseswilliam@example.com,Meganchester,Uganda
Pr8223,2946,Cannon-Benson,42557,913-199-22,obrienholly@example.org,Amandatown,Guinea-Bissau
Pr8224,2446,Juarez- Murray and Lane,37280,676-109-08,pcraig@example.net,Kington,Australia
Pr8225,673,Bradley Group,38286,630-882-94,zarmstrong@example.com,South Jennifer,Bolivia
Pr8226,1060,Clements- Mccall and Fernandez,33281,418-271-72,sarahmendoza@example.com,Cherylberg,Tonga
Pr8227,3283,Dyer- Hogan and Cooley,44233,337-855-56,halllucas@example.net,New Alexander,Saint Barthelemy
Pr8228,4038,Yoder Ltd,21386,716-060-01,qromero@example.com,Pearsonburgh,Cameroon
Pr8229,3980,Solis-Schaefer,46573,905-280-99,riverasophia@example.com,South Jamie,Peru
Pr8230,2944,Lynch-Harris,25299,209-499-53,christopher06@example.net,Jenniferville,Canada
Pr8231,1370,Hayden-Brown,42284,179-228-56,hodgesarah@example.org,Kimberlyville,Saudi Arabia
Pr8232,1586,Gallagher- Yoder and Payne,44427,214-004-28,swansonkayla@example.org,West Danielshire,Morocco
Pr8233,3974,Sanchez- Anderson and Cook,24179,543-094-78,riveragina@example.net,Port Annefurt,Tanzania
Pr8234,2992,Porter-Smith,22986,559-970-08,smithrobert@example.com,Porterside,India
Pr8235,2815,Wilkerson-Williams,32583,463-039-72,christineadams@example.org,North Marymouth,Eritrea
Pr8236,1131,Walker-Kelly,44504,260-353-34,christophergaines@example.net,West Michael,Ecuador
Pr8237,897,Hill LLC,48188,676-556-07,arthurkirby@example.com,Alvaradomouth,Peru
Pr8238,1965,Williams Inc,27347,812-494-74,perezamanda@example.com,South Christopher,Spain
Pr8239,2811,Green-James,17543,179-342-64,mitchellmaria@example.net,Westport,Djibouti
Pr8240,1564,Mckenzie-Jennings,35378,171-252-98,thomasmaldonado@example.com,Lake Michaelview,Cameroon
Pr8241,4708,Butler and Sons,38084,690-013-94,jpope@example.org,North Destinyland,French Guiana
Pr8242,915,Ball-Mooney,31730,893-376-08,whitematthew@example.com,East Stephanie,Israel
Pr8243,3225,Burns PLC,17506,957-456-69,blaircarlos@example.com,Lake Curtis,Yemen
Pr8244,2092,Morris-Meyer,37072,754-007-65,katie00@example.com,New Christinechester,Cayman Islands
Pr8245,659,Gonzalez- Alexander and Miles,16600,747-262-11,houstonrobert@example.com,South Andrew,Russian Federation
Pr8246,2982,Decker-Leonard,28439,776-834-98,watsondaniel@example.net,Laurenmouth,Azerbaijan
Pr8247,2105,Wong-Thompson,29040,521-784-20,jason43@example.com,Mosstown,Sri Lanka
Pr8248,1991,Peterson- Allen and Hernandez,47411,676-551-49,matthew75@example.org,Robertshire,Russian Federation
Pr8249,2409,Waters Ltd,16079,126-094-95,stephanie31@example.org,Johnmouth,Finland
Pr8250,943,Ruiz-Graves,22887,995-463-01,kristina59@example.org,North Danielstad,Tunisia
Pr8251,3147,Hodges PLC,18056,971-833-99,murphyalicia@example.com,Willisview,Ghana
Pr8252,2550,Mcmillan-Johnson,28084,499-180-55,codycollins@example.org,Heatherside,Portugal
Pr8253,2010,Collins-Santos,21035,629-900-70,teresajohnson@example.net,Lake Thomasville,Indonesia
Pr8254,4099,Greer and Sons,24380,902-420-99,lgarcia@example.com,Huntertown,Italy
Pr8255,622,Hodges-Calderon,22574,598-283-97,wbarron@example.com,East Stevenport,Swaziland
Pr8256,4622,Jones- Hall and Williams,39523,148-470-42,lloydhannah@example.com,Brittanymouth,Nauru
Pr8257,3844,Suarez and Sons,33515,673-307-78,lanebianca@example.org,South Kyle,Guadeloupe
Pr8258,2083,Smith Ltd,18873,161-253-97,tyler05@example.net,Stoneside,Trinidad and Tobago
Pr8259,1520,Barry-Curtis,16024,822-450-63,caroline82@example.net,Port Christophershire,Egypt
Pr8260,2802,Smith Group,49808,581-691-84,njames@example.org,Mackshire,Monaco
Pr8261,4255,Davis-Tapia,21430,459-003-82,rodriguezerin@example.com,Joseland,Equatorial Guinea
Pr8262,2683,Wright LLC,30813,775-815-79,collincastaneda@example.org,South Katherineborough,Slovenia
Pr8263,4136,Parker and Sons,27077,519-361-69,mwoodward@example.org,South Austinberg,Tuvalu
Pr8264,4570,Jones-Jones,34973,491-081-05,tiffanybryant@example.net,South Erika,Bahamas
Pr8265,3166,Bennett-Williams,25467,595-677-50,carolyn08@example.net,North Davidton,Venezuela
Pr8266,3336,Cox Group,23422,196-546-41,brightcalvin@example.org,Simmonshaven,Falkland Islands (Malvinas)
Pr8267,3457,Bryant Inc,34622,466-707-25,tyler30@example.com,Lake Kimchester,Trinidad and Tobago
Pr8268,915,Hoover-Lee,42040,356-143-08,fhunter@example.com,West Anthonyshire,Pitcairn Islands
Pr8269,3968,Sanchez-Martinez,27271,146-169-45,iholloway@example.org,South Juan,Belize
Pr8270,4664,Robinson and Sons,41010,907-854-25,darius66@example.org,Heatherbury,Iraq
Pr8271,656,Smith Ltd,31876,192-799-65,krystalking@example.com,East Annland,Congo
Pr8272,791,Owens-Lamb,49733,420-225-99,stuartjoseph@example.org,Thompsonfurt,Antarctica (the territory South of 60 deg S)
Pr8273,1595,Higgins- Ball and Kidd,37763,594-870-65,tkeith@example.net,New Matthew,Mongolia
Pr8274,4049,Reyes LLC,48967,697-413-14,wilsonthomas@example.net,Rojashaven,Guam
Pr8275,2985,Ward- Johnson and Hoffman,19186,211-705-46,srodriguez@example.net,North Moniquetown,San Marino
Pr8276,1236,Reed and Sons,25993,101-541-63,gabriella34@example.net,East Heidihaven,Iceland
Pr8277,1004,Schneider Inc,45218,388-564-12,douglasthompson@example.net,Amychester,France
Pr8278,3189,Cox Group,17184,129-192-34,andrewcontreras@example.com,Santiagoland,Malawi
Pr8279,2807,Miller-Brown,43833,376-563-13,lindsaydaniel@example.com,New Christineport,French Polynesia
Pr8280,2028,Cohen- Kirby and Montoya,45805,706-058-69,peggy24@example.org,New Jacob,Lao People's Democratic Republic
Pr8281,3979,Allen LLC,21622,640-794-19,hubbardryan@example.org,New Crystalville,Mozambique
Pr8282,3463,Meyer-Gordon,42815,542-226-34,gina50@example.com,Moniquefurt,Myanmar
Pr8283,1124,Ellis-Arroyo,37413,288-557-92,joshuafisher@example.com,East Kristenchester,New Caledonia
Pr8284,3700,Wolfe Ltd,29235,225-206-49,ogreen@example.org,East Robert,Senegal
Pr8285,3298,Hardin PLC,24809,668-861-62,pateljohn@example.net,Leahmouth,Tunisia
Pr8286,3162,Miranda- Smith and Walker,39305,632-159-66,rickyjordan@example.com,Hernandezshire,Korea
Pr8287,4090,Wilson PLC,44242,891-282-03,aherrera@example.net,Patelchester,Costa Rica
Pr8288,3950,Fisher Ltd,22123,175-582-19,jaredhunt@example.org,East Erica,Gibraltar
Pr8289,2652,Smith- Ford and Burns,43020,322-861-59,brandonfrye@example.net,Port Tara,China
Pr8290,2131,Johnson Ltd,43232,820-706-57,thomas45@example.org,New Michaelview,Mozambique
Pr8291,550,Chan- Garner and Carpenter,39109,125-906-44,valentinechristine@example.org,North Davidhaven,Paraguay
Pr8292,2786,Doyle- Martinez and Flores,40396,100-110-97,michellebooth@example.org,New Deborahshire,Cocos (Keeling) Islands
Pr8293,1386,Fernandez- Anderson and Phillips,39579,624-687-20,edavis@example.com,New Codymouth,Turkmenistan
Pr8294,4026,Phillips- Medina and Jackson,31565,482-078-52,harrisdaniel@example.org,Lake Louis,Paraguay
Pr8295,4728,Ramirez- Solis and Hudson,16147,489-681-77,peggy95@example.net,East Stanley,Trinidad and Tobago
Pr8296,637,Jones PLC,44879,797-999-31,joshua78@example.org,Johnland,Denmark
Pr8297,698,Hall-Luna,23433,165-376-90,jessica44@example.net,Watkinsview,Portugal
Pr8298,2668,Salas LLC,20112,777-878-28,ariel78@example.net,Morganville,Vanuatu
Pr8299,529,Mack- Robinson and Paul,27373,924-696-26,carlmoon@example.net,West Aaronville,Guyana
Pr8300,1202,Burke and Sons,32450,309-882-03,tevans@example.org,East Tyler,Kyrgyz Republic
Pr8301,4679,Lewis LLC,36821,247-505-13,jamie30@example.net,Colleenfurt,Zimbabwe
Pr8302,2156,Carroll-Green,16517,659-170-96,michaeltorres@example.net,South Cindyhaven,Armenia
Pr8303,1650,Williams and Sons,24210,161-886-97,stevenschmidt@example.org,Joneshaven,Liberia
Pr8304,1894,Lee Ltd,33815,956-916-37,dwright@example.com,West Jorge,Lebanon
Pr8305,2058,Davis Ltd,27384,398-238-17,qsheppard@example.net,East Billyshire,Japan
Pr8306,1414,Lane PLC,24772,154-120-90,terrijohnson@example.org,Mariastad,Barbados
Pr8307,3518,Stanley- Stephens and Acevedo,19722,896-661-20,deancrystal@example.net,New Alexandria,Vietnam
Pr8308,1066,York-Rodriguez,20857,513-748-47,cassidyhunter@example.com,Port Cynthia,Italy
Pr8309,4387,Flores- Golden and Burch,16077,137-268-83,suzannespencer@example.com,Donaldburgh,Svalbard & Jan Mayen Islands
Pr8310,2186,Stone- Vargas and Phillips,19773,892-902-98,haleyclements@example.org,East Aaron,Cocos (Keeling) Islands
Pr8311,1137,Arnold Ltd,30672,315-058-88,omar20@example.com,Fergusonstad,Belgium
Pr8312,1368,Jones Group,34256,203-842-18,daniel21@example.com,West Guy,Saint Kitts and Nevis
Pr8313,1124,Thompson and Sons,47807,566-931-80,featon@example.org,West Mark,Rwanda
Pr8314,2726,Oneal and Sons,37226,512-521-90,zsmith@example.net,East Markmouth,Thailand
Pr8315,996,Barnes- Hall and Thompson,16018,771-613-33,dorothyclark@example.net,North Misty,Norfolk Island
Pr8316,3239,Todd-Crawford,15906,210-709-67,justin61@example.com,North Michael,American Samoa
Pr8317,1841,Cole- Jimenez and Johnson,29566,410-333-86,gomeztina@example.com,Lake Stacy,Lao People's Democratic Republic
Pr8318,3037,Cunningham Group,17510,722-270-70,ekent@example.com,West Blake,Azerbaijan
Pr8319,4709,Torres Inc,33702,778-706-58,jenniferosborn@example.net,New Jeremymouth,Solomon Islands
Pr8320,4130,Kennedy Ltd,39266,180-643-37,ypatterson@example.net,Williamshire,Syrian Arab Republic
Pr8321,3732,Le-Compton,28856,725-263-25,barnesjackson@example.org,Byrdtown,Comoros
Pr8322,4690,Martinez Inc,20243,556-509-02,qwagner@example.com,New Brentshire,Austria
Pr8323,4698,Elliott and Sons,38078,239-318-63,marysmith@example.net,Calvinfurt,Zimbabwe
Pr8324,1800,Pruitt PLC,46972,564-491-03,adam63@example.com,Rochaview,Austria
Pr8325,2521,Pace-Obrien,26213,343-919-63,stephanie33@example.com,Garytown,Pitcairn Islands
Pr8326,2120,Jones-Friedman,41859,489-822-17,porozco@example.com,Cainhaven,Korea
Pr8327,1104,Stewart Group,33774,217-208-36,thopkins@example.net,East Erinville,Wallis and Futuna
Pr8328,3769,Combs- Miller and Banks,48278,572-828-94,kelly18@example.org,Stuarthaven,Russian Federation
Pr8329,673,Atkins-Green,15631,775-960-61,elizabeth60@example.org,New Alejandra,Haiti
Pr8330,4562,Johnson- Mathews and Small,29631,772-252-22,annacollier@example.org,East Kathleenmouth,Norfolk Island
Pr8331,2148,Edwards- Perry and Palmer,42806,189-105-80,grantkristi@example.net,Staceyport,Ecuador
Pr8332,1774,Medina-Johnson,22994,515-441-63,jaredhunter@example.net,Jenniferchester,Kazakhstan
Pr8333,1485,Wyatt-Dean,34362,401-563-36,carltrujillo@example.com,Hoodshire,Antarctica (the territory South of 60 deg S)
Pr8334,1786,Watson-Henry,30160,739-378-91,christopherhernandez@example.org,South Steven,Lesotho
Pr8335,3473,Anthony LLC,15818,109-682-98,brewermichael@example.com,East Mariahmouth,Sao Tome and Principe
Pr8336,4569,Peters- Wise and Rasmussen,44853,855-656-40,jacobcastillo@example.org,West Shannonside,Jamaica
Pr8337,4397,Castro-Leon,44576,909-759-51,millerryan@example.com,New Joshua,British Indian Ocean Territory (Chagos Archipelago)
Pr8338,3826,Andrews- Drake and Guerrero,31676,172-926-65,donald00@example.com,Mccannview,Malaysia
Pr8339,3418,Greer Ltd,22523,821-257-03,allenjames@example.net,Port Christina,Isle of Man
Pr8340,2309,Lewis Group,35526,777-764-01,brettcole@example.org,North Crystal,Paraguay
Pr8341,2965,Underwood- Diaz and Greer,34956,624-667-39,norrislisa@example.com,East Judyville,Reunion
Pr8342,4367,Miles-Soto,43255,708-023-96,brownjames@example.net,Lake Roberto,Equatorial Guinea
Pr8343,3640,Jackson-Schneider,31407,139-842-65,qpatton@example.com,West Belinda,Bhutan
Pr8344,1738,Elliott- Jones and Dean,48042,717-231-97,tannerbeck@example.net,Port Belinda,Hong Kong
Pr8345,2279,Dyer-Douglas,18186,125-377-57,melissanelson@example.com,Martinezburgh,Samoa
Pr8346,2520,Aguilar PLC,45390,904-718-75,vfigueroa@example.net,Michaelfurt,Morocco
Pr8347,505,Vargas- Lewis and Santos,17235,248-257-86,morsewilliam@example.net,Andrewfort,Comoros
Pr8348,3006,Mcdaniel Group,37162,113-868-70,qkane@example.org,Lake Douglasburgh,Mexico
Pr8349,1765,Hines Group,21975,949-612-43,joshua51@example.com,Salazarport,Nepal
Pr8350,1496,Gould- Hays and Roy,45761,462-218-65,daniellecastro@example.net,Kimberlyton,Samoa
Pr8351,4481,Maldonado- Jackson and Rodriguez,35741,452-543-57,sharon62@example.org,Raymondchester,Bulgaria
Pr8352,4042,Mendoza- Morales and Walker,43290,793-933-42,ccolon@example.org,West Rileyside,Belize
Pr8353,4495,Davila-Summers,30033,779-556-92,whitemarvin@example.org,Teresamouth,Mali
Pr8354,2255,Brown-Stewart,27353,138-624-70,taylorjeffrey@example.com,South Sharonton,Montserrat
Pr8355,3551,Robertson-Kramer,41277,922-760-52,wwilson@example.net,South Anthony,Puerto Rico
Pr8356,3834,Henry- Mercer and Martinez,44289,253-356-85,john88@example.net,Harrisville,Mozambique
Pr8357,2712,Franklin and Sons,30394,691-644-65,twilliams@example.net,South Cindy,Czech Republic
Pr8358,1234,Conrad-Morales,46591,568-297-08,teresaleonard@example.com,Port Eddie,Afghanistan
Pr8359,2848,Pratt and Sons,36730,382-359-68,sjohnson@example.com,Stanleychester,Falkland Islands (Malvinas)
Pr8360,4451,Vargas-Keller,40084,415-892-21,rbryant@example.net,Mccartyton,Myanmar
Pr8361,2724,Ferguson Group,41518,386-374-57,kmorales@example.org,Lisatown,Panama
Pr8362,707,Smith-Stevenson,41509,911-989-90,terryjohn@example.org,Estesmouth,Mauritania
Pr8363,1716,Meyer PLC,42568,388-000-97,jamessmith@example.net,New Stacey,Iran
Pr8364,1072,Gordon-Williams,33509,863-559-16,craigronald@example.org,Port David,Ethiopia
Pr8365,516,Andrade- Anderson and Lyons,19763,579-738-83,cassandra24@example.net,Cervantesstad,South Africa
Pr8366,2811,Mckenzie-Meza,25978,389-742-41,kevinharris@example.com,North John,Papua New Guinea
Pr8367,2620,Costa LLC,24322,908-433-66,cynthia45@example.org,North Ryanshire,Ukraine
Pr8368,4567,Nicholson- Martin and Conley,31030,377-714-21,wattssara@example.net,New Jeffrey,Tokelau
Pr8369,1225,Bennett- Roth and Adams,34148,205-483-08,nunezwhitney@example.org,North Andrew,Ethiopia
Pr8370,4110,Lawson- Jones and Stephens,24860,463-014-55,xlee@example.net,Abigailbury,Latvia
Pr8371,3568,Nelson-Pierce,36065,307-081-69,margaret48@example.com,Sullivanville,Mauritius
Pr8372,2631,Martin- Kennedy and Bailey,41523,399-313-04,jweaver@example.net,Lake Joeview,Spain
Pr8373,2505,Howard-Wilkinson,17303,537-359-62,jaredlynch@example.com,West Gailshire,Solomon Islands
Pr8374,968,Allison- Wright and Clark,29107,709-251-31,kimberlyphillips@example.net,North Jaclynfort,Gabon
Pr8375,1437,Coleman-Thomas,26402,968-003-81,michellewhite@example.com,Dorseytown,Indonesia
Pr8376,2571,Chung and Sons,32124,583-163-30,heatherhansen@example.com,Moralesborough,Antarctica (the territory South of 60 deg S)
Pr8377,4197,Hernandez-Coleman,28046,494-636-97,jamesharris@example.net,West Briannashire,Panama
Pr8378,2502,Hernandez- Perry and Brown,19441,677-860-71,morganmadison@example.com,South Tiffany,Norfolk Island
Pr8379,3652,Blankenship and Sons,25292,631-535-29,webbzachary@example.org,Port Joshuaberg,Marshall Islands
Pr8380,3329,Tucker Inc,28829,488-624-00,dmoody@example.net,New Ethan,Ghana
Pr8381,2310,Murphy LLC,23166,954-929-13,sleblanc@example.org,East Whitneyborough,Kuwait
Pr8382,4704,Villegas-Vasquez,32315,936-034-99,paulmoore@example.net,Williamsborough,Estonia
Pr8383,2576,Young Ltd,18084,613-835-82,garygray@example.org,New Cindyton,Portugal
Pr8384,830,Smith- Thomas and Owens,38574,364-259-88,plarson@example.net,North Stephanieport,Comoros
Pr8385,3697,Sanchez LLC,25270,747-103-95,michaelclark@example.com,New Sally,Senegal
Pr8386,645,Hayes- Hall and Russell,46876,211-352-19,ajohns@example.com,Mcmahonton,Madagascar
Pr8387,4507,Barton Inc,26681,766-851-39,scott75@example.com,South James,Costa Rica
Pr8388,4310,Williams- Smith and James,35792,232-712-51,iallen@example.com,Vazquezfort,South Georgia and the South Sandwich Islands
Pr8389,984,Santos- Hayes and Allen,38303,882-165-91,stephanie78@example.org,Contrerasfort,Madagascar
Pr8390,2099,Cohen-Reese,37003,958-383-73,rguerra@example.org,North Sarahmouth,Haiti
Pr8391,4388,Dennis Inc,39575,244-199-10,barrerajulie@example.com,West Melissachester,Nepal
Pr8392,2029,Lewis Inc,45334,248-038-95,cookthomas@example.net,Christymouth,Micronesia
Pr8393,1322,Soto PLC,49377,571-829-42,jody44@example.net,East John,Mauritius
Pr8394,1540,Taylor- Clark and Romero,35898,666-859-50,qcordova@example.org,Lake Jeremiah,Bosnia and Herzegovina
Pr8395,1403,Wallace and Sons,49379,687-161-57,brayanthony@example.com,Lambertstad,Cambodia
Pr8396,1840,Lynn-Ferrell,48773,121-474-28,kjackson@example.com,Laurenfort,French Southern Territories
Pr8397,3555,Black-Warner,19793,801-482-09,fwalter@example.com,Hallberg,Bahrain
Pr8398,3198,Sloan-Cook,39469,548-218-79,zacharymack@example.com,Bakerborough,Yemen
Pr8399,1114,Lewis-Fisher,18252,897-770-83,jparsons@example.net,Port Rodney,Belarus
Pr8400,2079,Gentry LLC,15567,509-441-35,gregorycalderon@example.org,New Debra,Kiribati
Pr8401,921,Peck- Little and Watkins,18559,181-684-90,patriciadiaz@example.org,West William,Somalia
Pr8402,1986,Martin-Richardson,41343,804-395-62,kiddchad@example.net,North Garychester,French Guiana
Pr8403,3240,Ward- Ward and Becker,44749,364-969-43,suecruz@example.net,Blakeville,South Georgia and the South Sandwich Islands
Pr8404,1533,Rogers- Morse and Richards,22094,112-382-84,omar52@example.com,West Ashley,Northern Mariana Islands
Pr8405,3370,Bryant-Liu,34842,599-195-00,owensluis@example.org,Huntfurt,Congo
Pr8406,3656,Romero-Hancock,40693,432-185-81,ejohnson@example.org,Lake Gregory,Sierra Leone
Pr8407,1070,Gordon LLC,28044,234-197-30,ellisshelley@example.net,Huffland,Ireland
Pr8408,3997,Gray-Garcia,20531,939-130-46,hwilliams@example.net,New William,Morocco
Pr8409,1062,King-Gomez,38292,604-054-52,ghenry@example.com,Gonzalezport,Guinea
Pr8410,4064,Sanders-Smith,19206,549-496-59,wdavis@example.com,Danmouth,Czech Republic
Pr8411,3184,Rice- Riddle and Kirk,32874,424-052-60,kyle81@example.net,New Matthewtown,Peru
Pr8412,569,Nguyen-Fischer,47943,994-364-60,annhill@example.com,Jenniferside,Lao People's Democratic Republic
Pr8413,2080,Mitchell LLC,35508,442-593-46,tonyalyons@example.net,New Ashley,Guinea
Pr8414,1628,White-Adams,46511,586-066-03,thompsondavid@example.com,West Laura,Romania
Pr8415,1348,Hogan- Miller and Johnson,46290,595-692-66,jessegardner@example.net,West Davidshire,Wallis and Futuna
